{"type":"Topology","arcs":[[[35571,347],[-24,69],[24,119],[-14,69],[20,9],[155,-93],[30,-45],[-38,-78],[-64,-23],[-22,-21],[-52,-14],[-15,8]],[[33887,1664],[-19,-7],[-14,11],[27,14],[6,-18]],[[34093,1715],[31,-24],[-44,-13],[-25,-51],[-76,10],[-28,18],[27,46],[66,22],[24,-13],[25,5]],[[33836,1685],[14,6],[8,-12],[-19,-9],[-3,15]],[[34150,1699],[-11,10],[20,15],[14,-26],[-8,-8],[-15,9]],[[27163,7063],[48,39],[14,63],[-2,130],[-45,105]],[[27178,7400],[-63,46],[-21,6]],[[27094,7452],[-38,12]],[[27056,7464],[-181,58],[-104,21]],[[26771,7543],[-31,21],[-4,15]],[[26736,7579],[-25,94]],[[26711,7673],[12,57],[132,73],[44,65],[13,50],[-22,247],[9,47],[42,43],[17,47],[139,652],[205,155],[23,127],[329,102],[86,41],[12,31]],[[27752,9410],[20,51],[-9,188]],[[27763,9649],[19,59],[47,65],[157,99]],[[27986,9872],[11,22],[1,20]],[[27998,9914],[4,85],[-48,129],[69,113],[7,40],[-52,198],[8,188],[84,121],[-4,46],[15,41],[31,28],[129,45],[25,58],[-99,151],[-23,101],[658,1614]],[[28802,12872],[836,-206],[37,-20],[1562,-1628],[79,-59],[1650,-632],[7,0]],[[32973,10327],[14,-5],[70,0]],[[33057,10322],[1200,432],[572,116],[164,8],[568,-277],[328,-47],[45,-66],[187,-185],[1022,-454],[137,-24],[83,56]],[[37363,9881],[45,-41],[16,-4]],[[37424,9836],[10,-7],[10,1]],[[37444,9830],[9,-3],[11,5]],[[37464,9832],[22,3],[36,24],[75,129],[-8,28],[-46,10],[-16,23],[0,109],[-79,109],[4,121],[-35,20],[-178,-41],[-37,10],[-26,34],[24,65],[-15,84],[24,46],[150,55],[26,-12],[32,5],[3,39],[-30,52],[-91,-53],[-36,11],[-13,75],[65,64],[104,5],[29,14],[-6,18],[-63,36],[4,45],[19,31],[54,31],[-49,83],[1,61],[29,26],[-10,20],[-47,27],[11,87],[-18,29],[-25,-30],[-21,-105],[-100,6],[-50,64],[-14,134],[19,37],[94,39],[67,5],[106,-41],[63,-9],[24,6],[11,30],[1,16]],[[37548,11507],[7,27],[59,-41],[43,7],[101,-32],[82,23],[8,46],[60,-55],[86,-39],[11,-30],[31,9],[156,-70],[90,-23],[18,-23],[42,-7],[63,-44],[39,19],[109,-22],[74,13],[32,23],[7,93],[50,4],[10,21],[21,-5],[42,-47],[29,3],[-16,-24],[21,-21],[-16,-41],[29,-25],[-10,-15],[-37,-5],[0,-26],[-31,-15],[25,-62],[50,-35],[55,-13],[11,-23],[47,7],[13,-9],[31,-45],[108,-88],[21,-43],[20,9],[127,-59],[14,18],[11,-12],[23,9],[-1,41],[62,-33],[1,-33],[-29,-18],[-30,7],[-21,-37],[42,-127],[80,-87],[-47,-3],[-9,-57],[54,-68],[-2,-41],[29,-37],[139,-128],[-26,-32],[-65,18],[-60,-16],[-21,-22],[-63,-24],[-30,-61],[49,-99],[62,-57],[7,-108],[91,-184],[38,-6],[39,-38],[36,7],[20,-10],[34,-82],[98,-132],[11,-50],[104,-100],[-3,-14],[19,24],[64,-56],[213,-244],[67,-22],[29,-40],[24,6],[65,-31],[44,36],[30,-29],[26,-65],[179,-161],[2,-32],[-46,12],[-28,-24],[5,-32],[-26,-26],[16,-51],[114,-143],[9,-40],[56,-65],[83,-59],[11,-75],[-12,-11],[-43,38],[-48,2],[-74,-16],[-38,-43],[-16,-35],[0,-68],[19,-67],[-30,-42],[39,-93],[57,-85],[35,-23],[16,-35],[162,-183],[146,-129],[23,16],[11,-6],[-9,-44],[15,-39],[88,-115],[177,-378],[85,-132],[106,-75],[-9,-50],[61,-94],[151,-146],[96,-144],[76,-72],[10,-18],[-8,-32],[21,-37],[141,-144],[52,-125],[3,-26],[-22,-19],[115,-173],[-4,-54],[-21,-3],[-29,39],[-29,7],[-23,71],[-37,25],[-57,0],[-39,69],[-45,20],[-21,-20],[-34,-131],[-23,-22],[-16,-3],[-47,51],[-102,41],[-18,-12],[-3,-85],[-50,-15],[6,-59],[-19,-10],[-52,28],[45,-37],[31,11],[8,64],[31,5],[13,16],[8,82],[107,-48],[37,-38],[28,0],[29,29],[30,66],[4,58],[16,13],[37,-27],[8,-82],[110,-28],[-19,-34],[-56,-34],[-35,-104],[0,-155],[41,-116],[74,-108],[143,-130],[79,-23],[44,3],[30,-34],[-6,38],[24,14],[10,32],[-10,46],[47,-17],[54,-59],[-33,-25],[15,-62],[-18,-32],[5,-39],[45,-43],[8,-46],[39,-54],[188,-206],[102,-215],[7,-25],[-15,-55],[24,-44],[2,-41],[189,-217],[0,-16],[-61,-57],[18,-84],[150,-194],[86,-90],[63,-41],[13,-45],[-22,-40],[-34,-18],[14,-66],[114,-142],[32,-7],[-5,-20],[42,-21],[-102,-82],[-8,-39],[37,-79],[28,-23],[42,4],[-10,-37],[-27,9],[-33,-27],[-24,-107],[90,-139],[74,-78],[61,-39],[13,-44],[37,-41],[18,-105],[-29,-34],[-28,22],[-48,-39],[-10,-100],[58,-155],[80,-127],[79,-83],[-18,-49],[26,-52],[-26,-7],[-52,39],[-73,-32],[-30,-22],[-34,-106],[4,-100],[33,-143],[28,-70],[27,-4],[-5,-89],[-29,1],[-37,-45],[-70,-2],[-68,-48],[-81,9],[-11,71],[-36,13],[-32,-4],[-60,-32],[-63,-83],[-52,-28],[0,-38],[-81,30],[-157,-113],[-42,70],[-60,4],[-24,23],[-86,-7],[-128,-53],[-29,3],[-44,43],[-79,-13],[-70,-33],[-37,0],[-15,12],[-3,34],[-42,34],[-11,30],[-222,82],[-118,30],[-41,-7],[-6,18],[66,88],[108,82],[44,4],[7,71],[68,75],[37,7],[62,-34],[54,-11],[44,36],[-9,64],[24,30],[26,5],[74,-32],[29,0],[34,-44],[20,-3],[79,76],[-89,-50],[-110,53],[-34,64],[13,91],[-26,-82],[21,-50],[-42,-14],[-34,-30],[-8,-28],[13,-45],[-18,-23],[-81,27],[-58,36],[-139,-72],[-38,47],[-11,57],[-68,40],[-34,59],[-163,95],[-137,37],[2,35],[58,48],[18,48],[26,18],[60,3],[24,32],[-58,66],[31,47],[-39,-20],[-5,-21],[21,-41],[29,-13],[0,-35],[-16,-9],[-26,9],[-44,-18],[-55,-78],[-73,-13],[-81,30],[-40,41],[-10,36],[70,46],[84,114],[47,28],[-63,116],[141,103],[84,4],[71,-18],[52,17],[45,-3],[44,48],[63,6],[23,42],[63,23],[19,-9],[122,93],[21,42],[24,-7],[-10,21],[12,15],[86,-29],[53,34],[52,-19],[97,-1],[44,13],[16,28],[44,6],[16,18],[-16,21],[6,25],[-19,-25],[13,-27],[-50,-9],[-57,-39],[-81,7],[-50,20],[-85,-23],[-24,26],[-57,9],[-35,100],[18,35],[-10,4],[-20,-30],[20,-53],[-10,-84],[-60,-84],[-43,-28],[-54,-2],[-78,-30],[-40,-34],[-138,-67],[-53,12],[-70,45],[-46,4],[-86,-24],[-36,46],[29,69],[-13,24],[0,-27],[-31,-57],[28,-48],[57,-30],[-108,-34],[-33,-44],[0,-31],[-29,-22],[-12,-77],[-40,-6],[-34,97],[-28,29],[-3,102],[-44,84],[41,149],[-33,72],[-71,63],[-23,68],[-66,62],[-16,44],[-57,33],[-78,20],[-2,19],[-49,28],[-110,128],[-26,14],[-25,51],[15,46],[-15,59],[23,22],[-18,39],[-107,22],[-59,-1],[-54,48],[-76,29],[-114,-6],[-25,18],[-3,21],[58,83],[-5,31],[-30,7],[-9,32],[87,61],[-22,22],[-86,20],[11,18],[47,-5],[25,11],[-9,28],[-54,21],[56,-46],[-70,0],[-12,-28],[60,-28],[34,0],[10,-18],[-52,-14],[-28,-22],[-4,-43],[30,-62],[-12,-26],[-58,-36],[24,-52],[114,-28],[48,-61],[104,-90],[73,-12],[62,14],[18,-17],[-85,-141],[-59,-21],[1,36],[-15,-19],[0,-16],[31,-18],[51,1],[-1,-53],[26,-42],[1,-39],[-17,-9],[-69,24],[-66,-25],[-45,1],[-24,-18],[14,-9],[16,12],[37,-3],[71,25],[60,-30],[57,-2],[25,-36],[58,-42],[-10,-10],[-108,2],[28,-15],[49,4],[-11,-24],[-31,-13],[-67,-9],[-75,11],[-57,-14],[-11,-25],[-41,-3],[-4,-20],[-56,-9],[-61,-34],[117,23],[103,56],[71,-13],[116,12],[44,20],[38,50],[91,-38],[53,-41],[5,-23],[-69,-4],[38,-6],[57,-34],[73,-84],[-25,-60],[28,-38],[-15,-9],[20,4],[53,-67],[-5,-48],[-67,-53],[-43,-17],[-35,45],[24,74],[38,7],[-81,7],[28,-40],[-24,-25],[-5,-32],[20,-41],[44,-31],[37,-53],[6,-44],[-44,-142],[22,-17],[19,-51],[32,-23],[-53,-188],[-86,-77],[6,-33],[-33,12],[-60,-35],[-26,7],[-94,-22],[-33,29],[6,50],[-20,-44],[19,-43],[-7,-14],[-107,-12],[-82,29],[-111,10],[-34,20],[-116,23],[-29,-9],[10,-14],[-8,-30],[-205,47],[-38,-19],[-110,54],[5,28],[-100,96],[-36,98],[-52,30],[-111,11],[-122,71],[-47,0],[-26,18],[-59,-9],[-82,32],[-158,0],[-22,32],[9,48],[51,23],[-54,-16],[-28,47],[-81,40],[-73,62],[-31,2],[-47,36],[-12,-12],[-1,25],[-5,-25],[75,-95],[86,-36],[59,3],[38,-24],[-14,-49],[0,-82],[-35,-24],[-58,-87],[-24,0],[-54,-37],[-81,-77],[-32,2],[-37,-21],[-39,5],[-188,46],[-27,16],[-60,52],[-69,107],[-80,0],[-11,-8],[22,-17],[-18,-15],[-56,16],[-12,21],[18,65],[-28,20],[-65,0],[-22,17],[-8,-12],[22,-17],[64,0],[27,-13],[-31,-47],[34,-49],[110,-15],[-39,-50],[-36,8],[31,-18],[40,15],[7,-29],[-87,-29],[-40,-27],[-42,3],[-60,-17],[-39,55],[-34,22],[46,-72],[31,-19],[42,0],[4,-21],[-73,-50],[-10,-27],[-39,9],[-52,-34],[-25,20],[-13,-4],[-66,-125],[6,-26],[-18,-33],[-70,-48],[-21,-33],[-57,-28],[-38,-151],[-55,-66],[-58,-3],[43,-25],[-13,-27],[-58,-55],[-239,-168],[-38,-13],[-177,2],[-176,32],[-66,33],[-91,15],[-26,33],[-60,220],[19,78],[61,33],[-10,9],[-43,-21],[-6,68],[70,182],[37,217],[10,9],[47,-9],[31,-55],[37,2],[-34,4],[-15,47],[-22,16],[-47,13],[-31,-15],[-41,58],[0,-22],[34,-39],[10,-39],[-16,-43],[-15,-10],[-16,7],[21,-23],[-6,-75],[-101,-205],[-101,-9],[-33,11],[-110,146],[-57,5],[-42,43],[-11,-9],[31,-39],[87,-30],[9,-49],[-22,-12],[28,4],[15,-35],[10,4],[62,-52],[-39,-56],[-58,-26],[63,17],[38,51],[89,-1],[37,-18],[-2,-26],[-34,-43],[-24,-91],[-49,0],[-63,22],[-34,-24],[44,14],[45,-23],[91,4],[37,-102],[-18,-95],[29,-71],[83,-108],[-38,-45],[-114,-51],[-10,-22],[-37,-9],[-100,-120],[-22,-49],[-19,-119],[25,-153],[-38,-14],[-149,113],[-189,193],[-130,108],[-115,49],[-23,4],[7,-16],[-13,-8],[-24,33],[-10,23],[10,30],[-55,148],[-15,93],[-118,195],[-36,86],[-33,102],[-39,210],[-73,134],[-39,102],[-24,16],[-69,182],[-80,123],[-18,112],[-43,34],[-127,173],[-152,122],[-220,138],[-87,-10],[-81,34],[-34,39],[-84,37],[-52,4],[-69,54],[-28,6],[-13,115],[-20,33],[-41,12],[47,-32],[6,-89],[-24,-17],[-57,3],[-497,167],[-90,48],[-55,10],[-249,104],[-238,129],[-45,47],[-60,30],[-149,119],[-242,153],[-153,116],[-70,23],[-66,48],[-531,215],[-70,8],[-28,-18],[-22,23],[-76,21],[-207,11],[-42,-3],[-26,-17],[-122,-8],[-27,37],[-298,193],[-135,127],[-4,36],[-21,3],[-30,35],[84,76],[7,71],[-17,85],[38,12],[89,-13],[47,41],[-63,-32],[-96,13],[-42,-22],[-32,-44],[-20,-2],[-76,37],[-266,178],[-206,96],[-268,77],[-241,32],[-30,26],[-45,-28],[-191,16],[-121,-12],[-60,-25],[-129,-91],[-38,5],[-198,132],[-144,158],[-232,342],[-119,116],[-19,45],[-42,4],[-37,23],[-250,244],[-481,380],[-24,50],[-4,99],[-36,97],[-93,102],[-121,95],[-212,100],[-44,37],[-16,108]],[[26802,6973],[0,0],[278,60]],[[27080,7033],[12,3],[71,27]],[[38985,1993],[25,-5],[13,-17],[-64,9],[-15,16],[41,-3]],[[38920,2016],[-3,23],[16,2],[10,-32],[-8,-7],[-15,14]],[[39601,10017],[48,-19],[17,-26],[-8,-14],[-62,12],[-17,17],[-60,-6],[-11,12],[27,42],[-9,18],[19,14],[31,-14],[25,-36]],[[40850,2684],[15,-14],[-8,-7],[-13,16],[6,5]],[[42134,5435],[10,6],[13,-15],[-10,-18],[-16,11],[3,16]],[[42086,7469],[17,7],[9,-12],[-10,-7],[-16,12]],[[42072,7539],[8,-5],[-8,-10],[-6,10],[6,5]],[[40829,1356],[8,-12],[-16,-16],[-16,5],[0,18],[24,5]],[[40596,3159],[16,-25],[8,21],[8,-9],[24,0],[7,-21],[67,-9],[3,-28],[-44,5],[-26,-48],[-37,20],[-15,-13],[-11,16],[8,16],[-20,-6],[-66,54],[23,7],[-24,34],[34,-14],[8,-18],[16,0],[-8,32],[24,0],[5,-14]],[[40685,10012],[19,-54],[-51,-11],[-29,31],[15,34],[34,-14],[12,14]],[[40578,10128],[35,-29],[3,-27],[-19,-13],[-58,40],[3,30],[36,-1]],[[40809,10308],[-26,36],[5,18],[18,-2],[18,-30],[4,-32],[-19,10]],[[40739,10474],[14,-11],[-8,-15],[-6,2],[0,24]],[[40645,10580],[-3,21],[6,7],[12,-39],[-15,11]],[[39658,10105],[4,8],[12,-21],[-12,-1],[-4,14]],[[39407,10732],[-2,-16],[-4,0],[-3,12],[9,4]],[[39001,11141],[35,-14],[9,-25],[-88,22],[16,25],[28,-8]],[[38946,11137],[-8,21],[16,6],[7,-9],[-15,-18]],[[38313,11410],[3,17],[10,7],[-1,-40],[-12,16]],[[38684,11424],[-13,-16],[-20,28],[10,2],[23,-14]],[[38696,11502],[-35,16],[8,19],[59,-31],[-32,-4]],[[38833,11662],[-7,-13],[40,-26],[12,-58],[39,-23],[39,-60],[-23,-18],[-48,15],[-5,40],[-60,52],[9,9],[-35,80],[13,12],[26,-10]],[[38676,11704],[12,-1],[-19,-13],[-2,11],[9,3]],[[38635,11722],[-6,7],[18,5],[2,-12],[-14,0]],[[38528,11780],[-23,21],[6,16],[56,-23],[-16,-17],[-23,3]],[[43244,724],[-4,-11],[-11,20],[16,-3],[-1,-6]],[[43818,842],[-24,-21],[-19,7],[31,25],[12,-11]],[[42471,7859],[19,-10],[-32,-4],[-17,24],[30,-10]],[[42416,7885],[-3,7],[33,5],[-10,-16],[-20,4]],[[41952,7555],[-14,14],[33,38],[43,-22],[-35,-36],[-27,6]],[[41661,7945],[-1,-27],[36,-49],[37,-8],[28,-52],[25,3],[71,-88],[-3,-30],[30,-16],[10,-25],[-21,1],[-25,27],[-70,19],[-76,-36],[36,89],[-16,73],[-85,24],[-24,-7],[-7,34],[-50,20],[-19,36],[-28,15],[94,6],[20,34],[41,-32],[-3,-11]],[[42203,8266],[19,14],[19,-3],[-21,-18],[-17,7]],[[42169,8286],[18,5],[11,-4],[-12,-6],[-17,5]],[[42467,8226],[-42,9],[-8,11],[28,6],[37,-18],[-15,-8]],[[42431,8550],[-22,18],[3,16],[34,-4],[11,-32],[-26,2]],[[46195,9630],[6,27],[20,7],[-2,-52],[-24,18]],[[45905,9926],[79,-59],[0,-39],[60,3],[90,-51],[-12,-144],[-43,-42],[-73,-41],[-76,0],[-33,95],[-37,39],[-47,9],[-47,-18],[-12,51],[16,44],[-35,30],[3,50],[107,70],[0,14],[24,5],[8,-15],[28,-1]],[[45627,9831],[27,18],[8,-3],[-27,-34],[-8,19]],[[45816,9979],[40,14],[15,-19],[-112,-58],[-24,11],[-32,-9],[-32,15],[78,75],[21,-6],[6,-27],[40,4]],[[44078,10968],[37,-25],[31,8],[38,-19],[19,-19],[-28,-30],[18,-11],[-4,-26],[51,-9],[54,-60],[-2,-41],[-49,-51],[-59,-10],[-87,74],[-44,-1],[-22,26],[-8,54],[-49,19],[-29,89],[84,37],[49,-5]],[[42594,11511],[10,14],[15,-29],[-10,-3],[-15,18]],[[42122,8661],[95,-21],[19,-20],[13,9],[34,-27],[40,1],[-10,-25],[16,-5],[22,-44],[27,-3],[1,-50],[15,-22],[-16,-27],[-66,2],[-6,-46],[-72,-20],[-102,31],[-24,-4],[-43,25],[15,24],[-35,2],[-85,35],[-34,68],[-1,67],[-25,22],[2,28],[55,-8],[5,-18],[25,12],[26,-17],[35,29],[74,2]],[[42377,8575],[9,-3],[7,-16],[-10,1],[-6,18]],[[40833,9813],[-2,-22],[61,-35],[11,-42],[40,-27],[1,-28],[69,-79],[-44,-37],[-113,36],[-44,39],[-21,128],[8,38],[-23,28],[30,19],[27,-18]],[[41502,13443],[12,6],[9,-19],[-13,-3],[-8,16]],[[40539,10656],[-18,-13],[-44,16],[39,14],[23,-17]],[[39890,11438],[13,8],[9,-13],[-12,-4],[-10,9]],[[40224,11780],[87,-15],[-10,-34],[6,-72],[16,-23],[-34,-48],[-43,6],[-67,77],[-6,-16],[18,-19],[9,-51],[-63,19],[6,69],[-33,70],[-1,69],[8,6],[22,-20],[18,20],[67,-38]],[[39992,11798],[58,-13],[-12,-27],[25,-48],[-11,-14],[-19,14],[-30,-46],[-22,-10],[-18,19],[-14,-19],[-27,38],[-8,98],[46,24],[32,-16]],[[40358,11772],[0,9],[13,7],[0,-24],[-13,8]],[[40656,12487],[-5,10],[26,4],[-14,-16],[-7,2]],[[42661,13424],[5,-14],[61,-17],[-16,-50],[22,-33],[52,-41],[43,-3],[-66,-29],[2,-20],[61,-22],[-3,-19],[-32,-1],[-15,-16],[52,-47],[23,-103],[-17,-12],[61,-72],[-2,-17],[-32,-9],[63,-39],[-23,-34],[41,-11],[3,-28],[28,-19],[-9,-18],[41,-25],[-28,-49],[25,-5],[9,-18],[42,-6],[-14,-42],[-52,19],[-34,-41],[16,-94],[15,-14],[48,-3],[6,-20],[68,-4],[-6,-26],[40,-42],[-3,-32],[-25,-35],[10,-46],[-36,-32],[-21,-48],[43,-70],[-46,-135],[-90,-22],[-203,24],[-35,-17],[-78,-9],[-56,-26],[-149,47],[-100,80],[-69,76],[-52,33],[-45,10],[-24,80],[25,53],[-13,77],[-28,40],[7,33],[-13,34],[43,50],[-9,28],[42,4],[19,15],[-3,49],[66,23],[257,157],[22,54],[-17,35],[-18,7],[-15,106],[-86,47],[-12,23],[29,31],[-28,14],[50,13],[3,12],[-56,16],[-19,28],[26,39],[37,3],[17,20],[-7,74],[22,58],[116,35],[44,-12]],[[42066,13584],[20,7],[28,-29],[-42,-45],[-77,-15],[-52,33],[12,17],[62,0],[-5,22],[-34,23],[11,23],[25,-3],[22,-32],[30,-1]],[[41947,13723],[-3,10],[15,9],[9,-23],[-21,4]],[[10316,32952],[-17,-48]],[[10299,32904],[-7,-9]],[[10292,32895],[-61,-43]],[[10231,32852],[-114,-24],[-94,-54],[-42,-12],[-74,20],[-24,-18],[-22,-106],[-171,-219],[3,-20],[41,-28],[9,-23],[-17,-57],[-48,-80],[-49,-27],[-120,-2],[-88,-73],[-91,-7],[-53,-89],[-67,-186]],[[9210,31847],[-38,-41]],[[9172,31806],[-20,-12]],[[9152,31794],[-84,-21]],[[9068,31773],[-95,10],[-47,-18],[-134,-207],[-118,-105],[-59,-2],[-101,80],[-126,-38],[-38,22],[-125,36]],[[8225,31551],[-10,10]],[[8215,31561],[-24,63],[65,69],[-7,35],[-23,31],[-49,24],[-97,-31]],[[8080,31752],[-40,111]],[[8040,31863],[79,80],[1,2]],[[8120,31945],[222,-24]],[[8342,31921],[176,-54],[23,2]],[[8541,31869],[12,19],[9,50]],[[8562,31938],[-49,279],[-36,334]],[[8477,32551],[-18,172],[-42,221]],[[8417,32944],[-8,248],[-76,576],[15,194],[-20,131],[41,592],[-10,647],[-68,52],[-145,27],[-72,-16],[-88,-53],[-80,-10],[-124,12],[-178,63],[-171,-19],[-94,7],[-74,27],[-115,78],[-87,34],[-152,9],[-47,-10],[-51,-44],[-160,3],[-56,19],[-24,41]],[[6573,35552],[22,311],[-20,214],[-11,31],[-66,7],[-4,13],[29,10],[-17,34],[8,14],[14,-12],[36,6],[34,45],[5,46],[13,0],[93,136],[-25,44],[5,32],[-16,16],[13,19],[-2,41],[-14,13],[118,231],[3,72],[-37,20],[43,47],[44,165],[-6,263],[17,135],[-27,43],[-50,327],[-44,75],[18,122],[-39,417],[-42,192],[0,40],[16,18],[-42,52],[-36,154],[-154,394],[-138,194],[-84,75],[-115,75],[-60,80],[12,68],[95,28],[23,59],[17,6],[53,-45],[60,-5],[-2,-50],[34,-32],[-24,34],[3,55],[-24,11],[-42,-4],[-60,45],[-26,-13],[-9,-47],[-20,-13],[-51,-11],[-74,10],[-13,23],[-17,191],[-48,149],[-74,161],[-99,164],[-119,164],[-58,39],[-96,106],[-133,91],[-28,-3],[-72,23],[-58,56],[38,48],[-22,-17],[1,7]],[[5222,41061],[48,176]],[[5270,41237],[89,131]],[[5359,41368],[6,8],[350,321],[94,129],[220,177],[90,111],[120,190],[129,66],[284,192],[165,180],[22,46],[39,590]],[[6878,43378],[38,-15],[32,6],[57,-39],[95,1],[122,-52],[65,-42],[52,-14],[33,-29],[77,58],[193,50],[50,29],[35,-33],[48,-20],[23,-35],[82,24],[52,-10],[62,22],[51,-28],[-9,-28],[84,-138],[28,9],[23,-49],[24,-19],[63,-24],[25,9],[63,-46],[47,22],[43,-20],[42,30],[59,-51],[38,50],[94,40],[116,-104],[116,-35],[58,-3],[55,-35],[31,-38],[60,13],[85,-92],[180,-18],[88,7],[8,-37],[-37,-34],[44,-26],[30,5],[19,-30],[97,62],[131,23],[67,-4],[31,83],[78,18],[27,43],[100,0],[41,92],[41,20],[19,23],[3,36],[48,31],[49,56],[5,20],[21,13],[-1,28],[74,-15],[28,-26],[-5,-135],[31,-152],[57,-86],[123,-32],[59,14],[56,50],[44,-69],[47,-5],[218,-82],[76,-56],[44,-61],[21,-76],[-44,-34],[28,-86],[-24,-61],[26,-115],[-27,-133],[12,-40],[-6,-59],[44,-27],[33,-53],[34,7],[38,60],[36,15],[55,-24],[14,-159],[-38,-133],[35,-28],[7,-23],[-54,-40],[-62,-74],[-16,-78],[175,-371],[65,-31],[64,31],[62,122],[50,28],[32,-8],[165,-112],[45,-18],[26,0],[114,54],[102,-21],[89,5],[69,46],[119,130],[58,17],[18,78],[30,38],[60,18],[30,-4],[68,-41],[96,-125],[55,-49],[71,-52],[71,-25],[326,41],[73,-9],[17,14],[25,-20],[62,11],[12,-17],[22,-1],[53,31],[51,-3],[54,14],[35,-8],[52,-51],[71,-15],[17,-26],[-61,-91],[79,-94],[-4,-33],[25,-15],[-2,-30],[29,-39],[-34,-65],[65,-21],[43,-53],[-74,-81],[-103,-49],[-51,-11],[-57,8],[-40,-23],[-60,18],[-9,-35],[-86,-32],[-2,-79],[-44,-16],[-59,-60],[-34,-6],[-21,-66],[18,-20],[97,-5],[31,-33],[146,-14],[114,-89],[28,5],[28,-53],[-14,-35],[117,5],[126,-96],[12,-45],[-22,-33],[-100,-55],[-19,-22],[-9,-82],[-20,-31],[-91,-66],[-27,-54],[36,-36],[62,-127],[-6,-30],[-45,-19],[33,-63],[-29,-42],[29,-50],[-7,-33],[-15,-5],[5,-23],[-29,-31],[37,-17],[10,-24],[143,-106],[-2,-44],[-143,-147],[-20,7],[-70,-58],[-55,-7],[24,-51],[-60,-109],[2,-46],[-41,-7],[13,-59],[-17,-8],[-16,-50],[-16,-2],[-80,60],[-109,10],[-28,-2],[-14,-23],[-28,-1],[-16,-39],[-26,-8],[-75,49],[-73,14],[-41,-30],[-59,-12],[6,-50],[23,-14],[4,-30],[-46,-37],[-15,-40],[-37,-21],[0,-23],[-53,-46],[9,-50],[-43,-12],[4,-136],[-36,-54],[29,-37],[8,-50],[52,-37],[-126,-83],[-25,-59],[-75,-54],[-39,-11],[-8,-73],[42,-120]],[[12710,37206],[-28,-97]],[[12682,37109],[-60,-26]],[[12622,37083],[-131,35],[-25,2]],[[12466,37120],[-17,5],[-18,-1]],[[12431,37124],[-40,4],[-33,-7]],[[12358,37121],[-26,-42],[1,-9]],[[12333,37070],[-5,-11],[24,-91],[-6,-103],[105,-111],[123,-64],[53,-84],[-17,-107],[-74,-148],[-1,-206],[-24,-50],[-41,-20],[-55,-7],[-94,15],[-56,-180],[-92,-56],[-52,-51],[0,-136],[104,-107],[12,-193],[44,-70],[0,-54],[-128,-266],[-89,-138],[-74,-41],[-65,-15],[-119,39],[-43,-5],[-71,-44],[-55,-83],[-64,-168],[-9,-242],[-94,-121],[-19,-47],[21,-149]],[[11472,33956],[-75,-320]],[[11397,33636],[-21,-42],[-117,-55],[-217,-193],[-60,-6],[-52,18],[-156,-45],[-125,25],[-148,-30]],[[10501,33308],[-91,-11],[-8,-9]],[[10402,33288],[-10,-2],[-21,-31],[3,-51],[-63,-78],[5,-174]],[[6491,36177],[-27,-9],[-20,9],[31,22],[26,-13],[-10,-9]],[[6078,36842],[-28,70],[-4,20],[14,7],[48,-66],[-15,-31],[-15,0]],[[6048,37066],[12,21],[10,3],[4,-16],[-17,-17],[-9,9]],[[6130,37392],[-10,9],[28,36],[39,-30],[-23,-21],[-34,6]],[[6540,37975],[14,-10],[-16,-14],[-71,-28],[-96,2],[88,64],[81,-14]],[[3716,39444],[58,72],[20,8],[-28,-59],[-44,-42],[-6,21]],[[3918,39560],[-18,6],[2,16],[26,4],[-10,-26]],[[2279,41145],[16,25],[25,3],[-32,-41],[-9,13]],[[2406,41225],[-10,-7],[-13,5],[10,14],[13,-12]],[[2255,41413],[15,2],[1,-14],[-15,1],[-1,11]],[[2306,41435],[-10,9],[6,11],[25,-26],[-13,-6],[-8,12]],[[2764,41499],[13,-18],[-34,-5],[-13,12],[3,20],[31,-9]],[[2724,41607],[32,-26],[29,14],[14,-7],[-46,-21],[-12,-33],[-21,1],[10,22],[-24,9],[-36,-65],[13,-28],[-24,-31],[7,-33],[-19,-33],[-15,5],[-16,68],[-56,8],[-8,-8],[-12,14],[17,30],[-11,13],[-94,-1],[-23,-13],[-31,7],[-14,18],[-17,-20],[-17,10],[-33,-17],[-30,27],[17,32],[29,-4],[50,38],[22,-11],[63,11],[17,15],[75,-16],[35,23],[35,-2],[27,28],[36,-4],[-10,18],[41,-38]],[[2153,41316],[-10,-26],[-43,-24],[-21,21],[-8,50],[46,30],[13,-8],[-5,-41],[28,-2]],[[2234,42564],[-13,-7],[-9,12],[16,4],[6,-9]],[[1822,42715],[-10,-5],[9,16],[23,0],[-22,-11]],[[2848,41571],[22,-19],[-20,-10],[-6,-27],[-27,-4],[-22,45],[19,28],[34,-13]],[[2589,42413],[3,-39],[-27,-82],[13,-20],[-13,-16],[-37,48],[-10,45],[29,32],[3,58],[24,2],[13,16],[5,68],[20,39],[16,0],[-16,-73],[-18,-14],[-5,-64]],[[2385,42635],[14,-39],[48,19],[9,-17],[-8,-63],[22,-27],[9,-48],[18,-5],[-13,-35],[24,14],[30,-13],[-23,-21],[3,-28],[-21,-23],[-10,20],[-23,5],[-43,41],[-85,29],[-47,33],[-43,69],[29,50],[11,66],[39,18],[11,24],[33,-11],[21,-37],[-5,-21]],[[1466,40286],[19,-35],[3,-9],[-60,22],[16,40],[22,-18]],[[1495,40281],[4,28],[5,0],[10,-34],[-19,6]],[[1288,40333],[12,5],[13,-14],[-13,-3],[-12,12]],[[1263,40338],[-16,17],[46,25],[-27,-29],[5,-15],[-8,2]],[[1843,40505],[-25,6],[-7,17],[42,-9],[-10,-14]],[[1885,40555],[29,-22],[-5,-19],[-34,41],[15,11],[14,-6],[-2,-10],[-17,5]],[[1929,40559],[-2,-5],[-13,1],[7,9],[8,-5]],[[2181,40907],[10,0],[-2,-13],[-15,0],[7,13]],[[2191,40917],[-20,6],[7,14],[21,-7],[-8,-13]],[[1980,41121],[28,-12],[-12,-25],[43,-5],[32,-35],[6,-52],[-45,-57],[78,-7],[-1,-43],[-63,-109],[-2,-45],[-36,-23],[-12,8],[-3,81],[-16,19],[-82,-11],[-25,-24],[-19,14],[-51,-3],[-44,-38],[-64,137],[21,82],[47,39],[65,116],[39,8],[62,41],[54,-56]],[[2207,40965],[9,17],[9,8],[5,-28],[-9,-8],[-14,11]],[[2158,40973],[-11,-4],[5,16],[11,0],[-5,-12]],[[2031,41139],[-14,-4],[-4,4],[14,9],[4,-9]],[[2244,41191],[10,-4],[-11,-9],[-5,4],[6,9]],[[2206,41212],[-3,-7],[-13,3],[12,7],[4,-3]],[[2155,41209],[-32,12],[42,40],[29,-26],[-39,-26]],[[1352,40395],[19,10],[17,-23],[-7,-14],[-34,9],[5,18]],[[1323,40441],[-21,-30],[-33,14],[25,46],[29,-30]],[[1328,40494],[22,36],[34,-7],[-29,-50],[-27,21]],[[1211,40658],[0,-18],[-15,-7],[-32,43],[26,18],[29,-27],[-8,-9]],[[973,40847],[-15,-14],[4,-21],[35,-25],[48,-6],[-1,-50],[-120,-89],[55,-17],[-13,-31],[39,-14],[7,-24],[-41,-69],[-36,29],[-89,8],[-23,-16],[-15,-71],[-26,-12],[-12,69],[43,28],[-30,51],[-4,60],[-23,43],[111,169],[17,1],[-5,-66],[40,55],[33,17],[-2,32],[31,-23],[-8,-14]],[[1099,40806],[7,-10],[-13,-14],[-10,9],[16,15]],[[686,40883],[29,-26],[53,-10],[-11,-21],[14,-43],[-58,-52],[-42,15],[-13,31],[14,51],[-15,59],[12,13],[17,-17]],[[1012,40855],[-13,15],[16,10],[10,-16],[-13,-9]],[[788,40965],[32,-1],[-38,-20],[7,-38],[-13,-14],[-62,73],[32,17],[42,-17]],[[671,40967],[26,-1],[-24,-22],[-7,6],[5,17]],[[977,41039],[-6,-8],[-12,1],[7,11],[11,-4]],[[939,41091],[-8,9],[29,-12],[0,-13],[-21,16]],[[1078,41136],[24,11],[12,-8],[-44,-20],[8,17]],[[748,41154],[-15,-19],[-59,35],[4,11],[13,10],[28,-16],[40,32],[9,-34],[-20,-19]],[[617,41364],[11,18],[46,2],[-25,-26],[-32,6]],[[579,41461],[22,-4],[2,-17],[-45,-88],[-115,-6],[-14,35],[68,37],[-4,43],[86,0]],[[1130,40694],[-11,14],[29,7],[-5,21],[13,14],[31,-37],[-57,-19]],[[1872,41387],[24,-15],[-23,-22],[13,-47],[-13,-39],[7,-32],[-55,-21],[-40,-42],[-29,8],[-22,-10],[-13,-83],[20,-56],[-48,-47],[-24,-56],[8,-81],[51,-58],[13,-48],[38,-1],[28,45],[39,-43],[-40,-3],[-1,-64],[-14,-19],[-10,37],[-24,-9],[27,-73],[-43,-85],[-41,-24],[-2,-62],[-35,0],[-50,-58],[27,-19],[-5,-19],[21,-9],[-16,-19],[16,-11],[-27,-10],[-60,92],[-30,-13],[-7,28],[11,26],[-27,40],[11,34],[-15,13],[-31,-7],[-24,-55],[-32,-30],[-54,-6],[18,15],[-16,38],[28,56],[-33,26],[-19,59],[-15,-11],[-8,6],[0,53],[14,14],[-28,16],[-29,-54],[-38,-5],[18,29],[-25,6],[9,21],[-10,19],[16,24],[-44,8],[-14,22],[50,44],[-16,57],[43,-9],[22,13],[26,-28],[17,31],[-16,11],[64,42],[17,68],[26,34],[-8,29],[34,17],[11,82],[23,28],[-10,18],[16,16],[39,15],[42,-14],[85,45],[51,0],[39,100],[52,15],[16,24],[54,-7]],[[1216,41075],[10,9],[10,-8],[-11,-11],[-9,10]],[[1822,42847],[16,6],[59,-30],[72,-5],[-21,-22],[56,-37],[9,-17],[-27,-16],[46,-25],[14,-25],[-34,-37],[7,-55],[-17,-21],[22,-4],[2,-22],[39,7],[17,-16],[-2,-20],[57,36],[5,-28],[-29,-13],[34,-31],[44,14],[74,-70],[50,4],[18,-37],[26,5],[23,-17],[49,-102],[12,-94],[-56,-27],[-12,-27],[-40,-23],[-16,9],[-10,41],[-15,0],[21,-55],[18,-7],[34,14],[39,46],[68,28],[17,27],[33,14],[18,-23],[10,-59],[-55,-114],[14,-16],[-45,-5],[-20,-27],[16,-41],[112,-99],[-7,-78],[12,-37],[-36,-52],[-101,-10],[-43,-20],[-21,-30],[-35,15],[-85,-35],[8,-61],[-73,-49],[-50,-5],[-30,23],[-29,-17],[23,-26],[5,-41],[-36,-51],[-4,44],[-77,16],[-39,55],[24,16],[-5,16],[23,4],[-18,58],[-40,38],[-28,3],[-40,29],[-133,-12],[-66,-33],[-31,16],[-31,-17],[-43,0],[-46,-43],[9,-47],[-37,-54],[-74,-36],[-48,-65],[-83,-31],[-25,-45],[-24,-12],[-45,30],[-40,-17],[-51,24],[-15,-28],[-30,4],[-21,-11],[10,-57],[-18,-7],[-5,-19],[-30,5],[-11,-25],[-43,16],[-4,-25],[-20,6],[-20,-13],[6,-18],[25,7],[-31,-39],[-45,11],[-18,-9],[-20,26],[29,35],[7,47],[-20,89],[-41,84],[-56,41],[5,50],[-53,47],[84,128],[-11,94],[-28,10],[23,23],[-8,51],[-34,70],[-41,45],[-70,-19],[-57,4],[-48,-31],[-34,24],[-25,-9],[-26,11],[-11,46],[-41,21],[-34,-9],[-21,-33],[-46,25],[-50,-26],[-59,-10],[-36,17],[-55,68],[-22,88],[5,32],[-18,12],[3,37],[-16,22],[31,86],[-15,24],[1,49],[-26,22],[4,163],[35,17],[44,1],[48,-18],[13,-21],[42,-9],[21,16],[39,-63],[63,14],[14,47],[27,24],[43,-22],[26,9],[28,-18],[157,34],[100,-15],[101,-37],[56,8],[12,-15],[-36,-27],[-21,-81],[40,-16],[7,-38],[-60,-71],[-5,-12],[18,-11],[-3,20],[108,142],[9,58],[48,10],[24,35],[29,-23],[-4,-15],[74,-30],[49,9],[14,24],[40,9],[26,-14],[20,-36],[176,26],[55,91],[40,26],[42,71],[61,58],[53,-22],[88,66],[12,-11],[-60,-61],[-49,-15],[50,2],[63,55],[16,-16],[0,-68],[-69,-64],[9,-30],[34,-14],[-30,44],[71,52],[-5,73],[70,-28],[50,-45],[2,36],[-54,93],[-41,-15],[-12,16],[-71,14],[-16,15],[8,24],[-18,16],[-21,-14],[10,-12],[-20,-24],[-17,11],[-6,30],[38,14],[4,36],[28,27],[45,-22],[32,-37],[4,18]],[[272,41917],[12,17],[18,-3],[-15,-31],[-15,17]],[[973,42503],[-10,-12],[-16,4],[37,32],[-11,-24]],[[314,42550],[8,-11],[-10,-7],[-16,12],[23,22],[10,-7],[-15,-9]],[[1274,42655],[0,7],[11,13],[-3,-40],[-8,20]],[[1454,42676],[-18,16],[4,14],[30,-8],[-16,-22]],[[1394,42706],[10,8],[0,-30],[-5,2],[-5,20]],[[26153,32563],[27,-64],[-66,-289],[15,-16],[87,8],[74,-15],[84,-53],[113,-31],[17,-9]],[[26504,32094],[153,-78]],[[26657,32016],[61,-6],[57,-35],[10,-11]],[[26785,31964],[79,-92]],[[26864,31872],[140,-60],[47,-40],[50,-57]],[[27101,31715],[60,-140]],[[27161,31575],[4,-9],[0,-6]],[[27165,31560],[-1,-21]],[[27164,31539],[-1,-14],[-27,-36],[-130,-39],[-68,-106],[19,-77],[78,-67],[37,-56],[45,-185],[-29,-83],[-70,-99],[-27,-64],[26,-117],[84,-218],[2,-83],[-40,-111]],[[27063,30184],[4,-246],[9,-9]],[[27076,29929],[30,-32]],[[27106,29897],[69,-15],[13,1]],[[27188,29883],[20,2]],[[27208,29885],[11,1],[94,33]],[[27313,29919],[87,5],[72,-14],[188,-95],[111,-97],[54,-18],[88,6],[175,-107],[209,-95],[14,-13]],[[28311,29491],[11,-10]],[[28322,29481],[14,-12],[-1,-10]],[[28335,29459],[-8,-89]],[[28327,29370],[-8,-78]],[[28319,29292],[-1,-6],[3,-5]],[[28321,29281],[70,-109],[65,-197],[39,-70],[-6,-35],[-11,-13]],[[28478,28857],[-81,-96]],[[28397,28761],[-86,-2],[-285,134],[-61,-13],[-12,-8]],[[27953,28872],[-15,-5],[-30,-27]],[[27908,28840],[-9,-7],[-5,-5]],[[27894,28828],[-17,-16],[-3,-11]],[[27874,28801],[-11,-15],[-9,-41],[1,-24]],[[27855,28721],[-6,-24],[7,-110]],[[27856,28587],[28,-97],[20,-38]],[[27904,28452],[21,-59]],[[27925,28393],[26,-135]],[[27951,28258],[-14,-26]],[[27937,28232],[-18,-11]],[[27919,28221],[-72,-17]],[[27847,28204],[-214,19],[-135,83],[-101,-3],[-34,-23],[-47,-73],[-135,-151],[-98,-70],[-72,-9],[-61,21],[-127,83],[-211,205],[-75,53],[-64,21],[-376,30],[-330,-42],[-62,-19],[-26,-37],[0,-66],[40,-109],[-17,-49],[-81,-94],[-135,-113],[-38,-62],[-66,-51],[-70,-25],[-55,4],[-180,63],[-156,97],[-127,12],[-273,-12],[-51,-26],[-52,-192]],[[24418,27669],[-87,-5]],[[24331,27664],[-94,20],[-207,183],[-155,83],[-54,174],[-81,117],[-107,77],[-105,37],[-72,60],[-33,212],[-38,58],[-82,58],[-67,7],[-117,-34],[-131,-66],[-204,-76],[-104,-70],[-35,9],[-104,81],[-136,-59],[-60,29],[-81,100],[-30,95],[-29,-3],[-33,-28],[-29,-60],[-3,-49],[-17,-9],[-47,0],[-43,24],[-83,105],[-24,18],[-17,1]],[[21909,28758],[-13,6],[-22,-4]],[[21874,28760],[-53,-45],[-16,-22]],[[21805,28693],[-33,-32],[-12,-30],[33,-152],[4,-142],[-14,-84],[-61,-138],[-14,-108],[-166,-145],[-67,-153],[-48,-158]],[[21427,27551],[-48,-12]],[[21379,27539],[-21,5]],[[21358,27544],[-66,44]],[[21292,27588],[-51,75],[16,159],[-15,110],[-31,82],[-104,69],[-237,46],[-38,26],[-40,139],[-54,119],[-43,28],[-95,-5],[-74,71],[-5,26],[49,101],[-12,51],[-26,28],[-92,48],[-233,-2],[-78,-66],[-36,-102],[1,-97],[54,-153],[-55,-149],[-9,-64],[32,-180],[-101,-276]],[[20015,27672],[-12,-19]],[[20003,27653],[-63,-71],[-52,-27],[-74,13],[-89,52],[-52,-2],[-91,-139],[-239,-58],[-157,-77],[-32,-40],[-64,-147],[-107,-66],[-97,-7],[-149,-61],[-57,13]],[[18680,27036],[-55,44],[-14,5]],[[18611,27085],[-10,8],[-24,5]],[[18577,27098],[-38,15],[-10,-3]],[[18529,27110],[-12,3],[-23,-14]],[[18494,27099],[-28,-8],[-63,-45]],[[18403,27046],[-51,22]],[[18352,27068],[-122,125]],[[18230,27193],[-119,18],[-50,22],[-140,166],[-109,93],[-109,27],[-182,-10],[-45,-15],[-81,-55]],[[17395,27439],[-118,-158]],[[17277,27281],[-15,-13]],[[17262,27268],[-62,-34]],[[17200,27234],[-46,4]],[[17154,27238],[-301,170]],[[16853,27408],[-148,121],[-61,30]],[[16644,27559],[-221,-39]],[[16423,27520],[-134,141],[-186,291],[-87,94],[-44,82],[-2,93]],[[15970,28221],[5,27]],[[15975,28248],[21,44]],[[15996,28292],[15,21]],[[16011,28313],[22,15]],[[16033,28328],[19,6]],[[16052,28334],[56,-15]],[[16108,28319],[10,-5],[8,0]],[[16126,28314],[15,-5],[90,-5],[114,14],[26,9]],[[16371,28327],[12,2],[4,4]],[[16387,28333],[14,5],[26,34],[0,25],[-92,306],[16,30],[26,12],[166,51],[136,307],[18,60],[-67,178]],[[16630,29341],[28,104]],[[16658,29445],[16,20]],[[16674,29465],[60,46]],[[16734,29511],[304,68],[-87,58],[-5,17],[22,62],[96,80],[36,111],[-1,74],[-48,159],[5,173],[-35,41],[-142,89],[-34,59],[4,56],[154,118],[54,60],[11,51],[-29,64],[102,115],[68,291],[40,51],[109,64],[31,41],[-26,162],[48,208],[-21,124],[40,94],[-3,113],[59,116],[154,166],[-27,83],[0,71],[144,176],[-38,113],[-5,83],[49,37],[131,-19],[125,120],[140,49],[42,221],[42,59],[100,48],[29,32],[46,211],[47,42],[54,2],[61,-23],[108,-86],[108,-115],[27,-12],[235,-61],[204,-32],[58,7],[123,44],[73,66],[111,15],[77,25],[128,142],[8,15]],[[19840,33709],[25,29],[3,22]],[[19868,33760],[3,5],[-1,11]],[[19870,33776],[5,35],[-11,55]],[[19864,33866],[-268,401],[-128,573],[-336,364],[-272,796],[0,154],[80,294],[224,489],[0,140],[106,126]],[[19270,37203],[52,-42],[42,-109],[44,-67],[59,-5],[64,69],[20,163],[20,5],[14,-62],[35,40],[108,22],[112,70],[92,18],[74,-31],[54,-67],[44,-25],[-5,-38],[29,-65],[111,-133],[52,-38],[29,-5],[46,-49],[36,-2],[31,-19],[31,-35],[78,8],[2,128],[-25,-1],[-18,19],[30,26],[3,42],[91,110],[-31,49],[19,33],[21,16],[47,-5],[32,20],[22,-20],[36,11],[49,61],[130,-53],[3,13],[-27,9],[-2,33],[-26,12],[56,67],[127,33],[-11,18],[10,19],[-26,45],[23,77],[29,22],[8,30],[33,17],[37,-10],[45,61],[11,-18],[26,7],[50,-22],[112,13],[1,21],[28,1],[89,63],[-20,11],[0,20],[31,33],[53,18],[16,-8],[28,37],[-2,30],[26,18],[-38,53],[6,77],[-7,8],[-20,-10],[8,31],[-33,44],[9,16],[-19,11],[-7,51],[-25,-15],[1,23],[-35,20],[-13,-12],[-28,12],[-11,59],[27,30],[-9,22],[44,4],[28,70],[-14,21],[19,13],[-22,14],[23,51],[-21,3],[2,31],[15,7],[59,-9],[66,60],[-5,20],[-21,12],[8,43],[-26,59],[61,37],[-25,11],[17,15],[-26,13],[36,47],[20,-25],[3,55],[17,-25],[16,4],[3,21],[25,9],[-8,29],[34,-15],[17,31],[35,-5],[12,31],[71,42],[9,31],[-13,14],[-5,66],[66,65],[-14,38],[67,-16],[65,85],[74,-1],[44,33],[-1,47],[14,11],[58,1],[46,24],[29,-14],[27,70],[74,38],[20,48],[25,-12],[91,39],[-7,14],[98,33],[33,45],[9,41],[28,4],[-19,48],[19,-3],[-8,21],[11,31],[37,35],[9,-6],[9,25],[28,-4],[13,45],[26,11],[-15,14],[24,6],[-8,17],[46,20],[-17,37],[40,16],[8,59],[53,15],[-4,23],[47,47],[1,17],[-26,17],[11,27],[-11,21],[-19,-13],[-33,30],[-8,27],[17,27],[-27,26],[-5,26],[-22,-12],[-13,11],[20,76],[-30,80],[1,61],[26,46],[-13,51],[22,83],[-8,47],[103,90],[-36,40],[-10,37],[17,-19],[56,-18],[323,-193],[108,-13],[-45,-13],[-76,12],[53,-32],[112,-41],[170,-21],[36,-24],[67,-16],[64,49],[18,-13],[-3,-23],[-44,-18],[-16,-23],[37,-23],[80,11],[12,-18],[-24,-32],[36,3],[-4,45],[-16,11],[-89,-4],[-22,18],[48,14],[27,33],[12,-13],[16,10],[-87,42],[-18,50],[139,33],[62,-25],[-21,25],[0,28],[46,-14],[67,26],[31,-10],[5,20],[90,-15],[25,-18],[17,-94],[44,-48],[42,27],[33,78],[213,-102],[46,-5],[187,-112],[112,-14],[54,-23],[40,11],[167,-59],[145,-98],[50,13],[18,-41],[197,-252],[31,-11],[-10,-12],[25,10],[-9,-22],[634,-1220],[106,-238],[167,-275],[134,-167],[-61,-50],[42,-37],[-33,-41],[10,-30],[42,-15],[42,4],[10,-13],[-10,-32],[15,-26],[134,-82],[42,2],[44,37],[-2,20],[-24,14],[10,12],[248,-203]],[[27267,37679],[-197,-220],[-135,-85],[-79,-71],[-160,-189]],[[26696,37114],[-28,-33]],[[26668,37081],[-2,-2],[-2,-2]],[[26664,37077],[-220,-137]],[[26444,36940],[-112,-90],[-174,-189]],[[26158,36661],[-238,-173],[-16,-15]],[[25904,36473],[-61,-56]],[[25843,36417],[-18,-16],[0,-10]],[[25825,36391],[5,-106]],[[25830,36285],[4,-116],[7,-22]],[[25841,36147],[106,-321],[17,-293],[91,-245],[-32,-108],[-111,-146],[-9,-84],[-1,-277],[70,-135],[14,-229],[-31,-34],[-123,-49],[-7,-52],[40,-49],[297,-169],[92,-127],[112,-46],[12,-27],[-86,-140]],[[26292,33616],[-32,-173]],[[26260,33443],[-3,-16],[-84,-131]],[[26173,33296],[-5,-7],[-3,-22]],[[26165,33267],[-28,-206],[-3,-166]],[[26134,32895],[-4,-133]],[[26130,32762],[0,-43]],[[26130,32719],[-1,-25],[24,-131]],[[23759,40743],[23,-17],[60,-2],[18,-15],[2,-16],[-48,20],[-19,-7],[43,-12],[38,-41],[-26,-27],[-71,9],[-57,35],[79,-13],[-66,28],[51,9],[-92,12],[41,11],[-21,12],[21,18],[24,-4]],[[23651,40773],[32,0],[0,-14],[-36,-21],[-19,39],[23,-4]],[[23805,40618],[-11,7],[51,-13],[-20,3],[-20,3]],[[24383,40771],[14,-31],[-3,-61],[-24,-18],[-41,65],[24,24],[26,-7],[-42,31],[46,-3]],[[24104,40791],[23,23],[21,-9],[-13,-12],[-31,-2]],[[18847,16102],[75,-1],[-57,7],[-18,-6]],[[19916,11648],[-25,-40],[-92,-98],[25,-39],[12,-72],[-87,-60],[-54,-60],[-9,-47],[23,-135],[-17,-19],[-134,-14],[-49,-24],[-18,-25]],[[19491,11015],[8,-35],[-88,55],[29,40],[111,70],[-43,-14],[-77,-51],[-29,-43],[17,-28],[72,-37],[4,-18],[-114,-18],[-43,6],[-66,47],[-10,60],[-22,30],[-15,-12],[-118,60],[-401,110],[-236,32],[-236,151],[-55,-8],[-36,22],[-117,23],[-20,-10],[-139,49],[-138,77],[-90,29],[-68,6],[-97,61],[-49,6],[-10,12],[-22,-7],[-118,63],[-95,81],[-43,55],[-88,195],[-43,46],[-78,143],[-54,60],[-51,88],[-167,114],[-55,77],[10,27],[59,21],[26,47],[16,142],[-45,73],[31,56],[1,40],[57,6],[26,22],[-7,81],[20,41],[184,18],[0,18],[-15,3],[26,84],[28,29],[34,11],[13,27],[-24,76],[-142,31],[-72,65],[-29,-5],[-17,-24],[63,-80],[-45,-58],[-2,-96],[-41,7],[-6,70],[-76,63],[7,32],[82,116],[71,7],[25,33],[-68,123],[-37,11],[-118,-2],[-18,45],[104,49],[67,76],[126,47],[21,33],[-5,27],[-74,63],[-96,47],[-47,0],[-54,-22],[-37,-48],[-28,-117],[-30,-35],[-102,-65],[-31,-42],[-19,-172],[-40,-79],[-47,-26],[-27,3],[-128,108],[-5,76],[51,89],[45,168],[112,113],[97,58],[39,66],[-51,112],[-84,6],[-144,-16],[-32,28],[-24,73],[-22,1],[-3,19],[19,279],[16,12],[27,-22],[74,7],[14,-9],[-14,15],[-36,-4],[-25,65],[43,-13],[33,59],[72,10],[75,52],[30,2],[8,24],[-98,-46],[-20,-23],[-60,-2],[-44,-63],[-46,10],[2,-66],[-33,26],[8,72],[-19,95],[-267,254],[-21,70],[-20,-18],[-43,7],[-29,21],[-52,-44],[3,-24],[-37,27],[6,11],[20,-11],[-5,29],[29,0],[31,26],[-57,100],[13,21],[-66,247],[8,108],[-31,330],[7,83],[-46,80],[-13,54],[14,70],[-12,32],[22,33],[-26,-14],[-38,10],[-100,151],[-179,204],[-82,78],[-132,72],[-113,125],[-68,28],[-16,20],[-144,22],[-157,56],[-107,250],[-7,69],[-32,21],[17,24],[-19,19],[-52,15],[26,24],[-4,38],[-48,29],[18,25],[38,-11],[-28,21],[-25,-13],[-9,-32],[42,-15],[6,-23],[-3,-16],[-42,-25],[-187,264],[-119,100],[-4,46],[-74,25],[-45,48],[-9,40],[-49,46],[-56,97],[-16,1],[-75,104],[-24,65],[7,16],[-41,46],[-77,207],[-32,39],[-48,116],[-113,198],[-27,87],[-46,81],[-23,27],[-30,11],[-125,162],[-61,37],[-16,43],[-53,24],[-39,49],[-283,198],[-69,28],[-3,21],[-25,20],[-106,-1],[-270,57],[-7,86],[-40,27],[-49,71],[-24,111],[-27,13],[-81,129],[-224,210],[-102,48],[-82,68],[-105,36],[-131,30],[-169,-10],[-59,14],[-61,52],[-47,115],[-2,47]],[[10998,20889],[12,35],[51,44],[52,226],[61,51],[133,2],[192,40]],[[11499,21287],[378,19]],[[11877,21306],[67,13],[113,54],[107,22]],[[12164,21395],[52,-1]],[[12216,21394],[8,-38]],[[12224,21356],[-21,-146],[1,-9]],[[12204,21201],[-2,-17],[14,-45]],[[12216,21139],[56,-37],[224,-56],[51,-48],[3,-30],[-18,-33],[-92,-74],[-29,-75],[-1,-50],[34,-62],[50,-40],[78,-22],[54,9],[48,60],[31,127]],[[12705,20808],[82,44]],[[12787,20852],[199,18],[79,-39],[-13,-81],[22,-44],[51,2],[179,83],[26,-4],[7,-41],[-18,-63],[11,-75],[26,-118],[23,-12],[39,7],[51,62],[73,44],[87,101],[21,-19],[1,-99],[95,-80],[-41,-9],[-119,42],[-51,-10],[-20,-32],[10,-90],[-37,-96],[0,-28],[40,-27],[56,28],[90,96],[45,-18],[59,-66],[31,3],[48,89],[70,-22],[22,5],[86,139],[32,18],[44,-74],[36,-21],[-64,-98],[57,-35],[84,-8],[20,13],[3,71],[25,10],[48,-125],[51,-35],[46,-84],[30,-11],[53,-1],[81,47],[71,5],[27,39],[42,-49],[91,-70],[23,-4]],[[14835,20086],[264,90]],[[15099,20176],[43,-7],[4,-23],[-31,-100]],[[15115,20046],[0,-205],[8,-34]],[[15123,19807],[80,-32],[195,-22],[173,61],[35,4],[63,-19],[34,9],[27,40],[56,42],[115,36],[70,7],[52,25],[10,15]],[[16033,19973],[15,10],[13,32]],[[16061,20015],[-5,164],[-48,74],[-45,173],[-92,155],[-6,44],[38,57],[50,42],[16,57],[29,13],[59,-5]],[[16057,20789],[88,45]],[[16145,20834],[29,3]],[[16174,20837],[92,-10]],[[16266,20827],[18,-4]],[[16284,20823],[34,-14]],[[16318,20809],[25,-19]],[[16343,20790],[64,-52]],[[16407,20738],[19,-39],[-12,-72],[5,-12]],[[16419,20615],[-1,-17],[18,-22]],[[16436,20576],[57,20],[21,-6],[249,-147],[174,-60],[43,-35],[56,-156],[54,-32],[230,-68],[323,-264],[48,-27],[140,-11]],[[17831,19790],[65,25],[30,20]],[[17926,19835],[20,79],[53,58],[109,20],[93,52],[37,74]],[[18238,20118],[-29,55]],[[18209,20173],[-4,19]],[[18205,20192],[2,18]],[[18207,20210],[65,107],[61,46],[67,-29]],[[18400,20334],[35,31],[29,46]],[[18464,20411],[20,92],[-5,20],[-27,11],[-26,35],[29,54],[78,7],[153,-17]],[[18686,20613],[333,-367],[100,-32],[159,-99],[151,-15],[249,18],[124,-55]],[[19802,20063],[147,-141],[54,-39]],[[20003,19883],[46,-41]],[[20049,19842],[54,-89]],[[20103,19753],[68,-71],[45,-198],[44,-66],[172,-127]],[[20432,19291],[40,-115]],[[20472,19176],[-6,-51],[-62,-124],[6,-181],[-42,-37],[-192,-64],[-146,-230],[-62,-71],[-13,-48],[189,-321],[56,-163],[29,-146],[-40,-93],[-163,-113],[-71,-216],[99,-43],[64,-52],[31,-76],[352,-444],[483,-237],[66,-12],[204,19],[195,-89],[0,2]],[[21449,16386],[85,-38],[26,-21],[22,-174],[70,-76],[43,-88],[-3,-204],[39,-173],[111,-200],[-5,-86],[-108,-168],[-18,-104],[11,-48],[114,-165],[89,-197],[-8,-134],[-35,-31],[-87,-28],[-137,-80],[-19,-48],[-5,-75],[-155,-225],[-336,-679]],[[21143,13344],[-93,-110]],[[21050,13234],[-28,-33],[-35,-22],[-44,-2],[-1100,36],[120,-1250]],[[19963,11963],[-47,-315]],[[16747,14086],[37,-9],[95,-61],[45,-47],[-17,-22],[-114,-38],[-72,-81],[-88,-34],[-28,-32],[8,-37],[25,-18],[143,-6],[66,-121],[-14,-18],[-82,-12],[-88,-125],[-5,-29],[80,-64],[-1,-58],[41,-33],[40,25],[-10,87],[51,66],[-63,56],[14,33],[30,-5],[56,-54],[136,-30],[20,-65],[-10,-24],[-58,-34],[-28,-97],[-67,-25],[-53,7],[-49,-15],[-28,-38],[8,-94],[-24,-11],[-42,3],[-20,-20],[-2,-41],[-28,-42],[34,-95],[-34,-159],[-224,11],[-131,42],[-97,4],[-58,28],[-13,39],[-50,-16],[-73,49],[-127,57],[-162,14],[-162,54],[-37,61],[-42,197],[7,46],[20,23],[153,94],[113,137],[48,34],[75,-48],[92,-90],[54,-12],[44,21],[26,48],[-16,62],[-108,105],[68,28],[32,-12],[67,-93],[63,-48],[83,-31],[63,11],[80,87],[30,218],[140,99],[67,184],[71,14]],[[16162,14237],[121,-20],[170,3],[17,-20],[-39,-44],[-74,-20],[-101,-97],[-51,-93],[-40,-122],[-58,-91],[-138,-57],[-15,-54],[13,-37],[103,-107],[-5,-51],[-61,-2],[-101,119],[-81,28],[-75,-22],[-155,-151],[-114,-60],[-21,-2],[-75,45],[-26,37],[82,61],[53,82],[4,41],[53,100],[223,322],[109,78],[88,15],[28,-8],[-38,16],[2,36],[177,83],[16,-19],[9,11]],[[16309,14076],[45,39],[56,16],[-43,-44],[-44,-21],[-14,10]],[[15672,14118],[-10,10],[39,23],[24,6],[12,-10],[-51,-40],[-14,11]],[[15019,13480],[-44,49],[24,107],[-29,64],[13,91],[-16,49],[45,68],[180,94],[18,-36],[22,-135],[2,-242],[-43,-65],[-172,-44]],[[15660,14063],[-91,-189],[-169,-253],[-49,-34],[-62,4],[-16,150],[6,115],[147,95],[89,37],[64,70],[34,12],[47,-7]],[[15343,13916],[72,90],[34,15],[-29,-62],[-77,-43]],[[15646,14075],[-57,0],[-50,-37],[-33,-46],[-75,-30],[30,62],[66,52],[119,40],[37,-16],[-12,-23],[-25,-2]],[[15864,14358],[79,-2],[26,-13],[6,-67],[-209,-118],[-24,-7],[-23,15],[-150,-75],[-15,10],[-143,-89],[-86,-107],[-56,-11],[-19,45],[27,163],[180,259],[21,-15],[5,-44],[21,-17],[78,33],[75,12],[89,43],[88,-2],[30,-13]],[[15854,14841],[84,-22],[31,-42],[6,-101],[-11,-9],[-39,8],[39,-21],[-19,-92],[21,-130],[-17,-8],[26,-68],[-27,10],[-57,-7],[-125,29],[-103,-45],[-68,-9],[-88,-37],[-45,91],[175,380],[32,37],[60,27],[88,16],[37,-7]],[[15253,14388],[17,-79],[-11,-17],[-174,-116],[-246,-265],[-57,-37],[-81,-20],[-16,37],[26,70],[45,74],[65,64],[32,84],[0,41],[36,31],[-13,30],[21,28],[219,93],[122,9],[15,-27]],[[15342,14427],[-16,-60],[-37,-38],[-23,76],[34,41],[25,8],[15,0],[2,-27]],[[15269,14768],[35,2],[29,-14],[1,-24],[31,-7],[66,-85],[-8,-39],[-45,-61],[-170,-112],[-99,-7],[-239,-96],[-49,-14],[-20,7],[-27,29],[31,67],[197,241],[109,81],[123,38],[35,-6]],[[27163,7063],[-83,-30]],[[26802,6973],[-2,-1],[-13,-33],[21,-67],[-239,91],[-164,21],[-61,-4],[-135,59],[-97,62],[-99,36],[-84,12],[-146,-12],[-76,14],[-168,86],[-89,65],[-151,39],[-24,-7],[-68,14],[-57,55],[-57,27],[-147,27],[-55,26],[-16,20],[-156,53],[-47,-12],[-147,44],[-23,23],[-68,27],[-16,30],[6,26],[-22,19],[-120,23],[-235,110],[-184,25],[-75,-7],[-37,-32],[-84,7],[-54,66],[-79,148],[-58,70],[-20,6],[-37,-29],[23,-37],[-29,29],[-34,-27],[37,-48],[-5,-9],[-118,127],[5,10],[74,-75],[81,71],[-68,79],[-131,85],[-55,4],[-29,-22],[-50,68],[-41,28],[-47,70],[-29,-1],[-26,24],[-34,9],[-83,227],[-106,137],[-57,35],[-126,41],[-133,95],[-81,37],[-136,30],[-52,-30],[-76,31],[-110,8],[-44,50],[56,14]],[[21995,9160],[63,43]],[[22058,9203],[76,14],[25,11]],[[22159,9228],[17,4],[7,7]],[[22183,9239],[9,4],[11,15]],[[22203,9258],[26,25],[51,84],[139,79],[75,71],[19,75],[77,-26],[98,-4],[48,112],[46,59],[130,82],[334,-27],[33,31],[329,7],[135,197],[85,91],[141,-33],[134,-88],[183,-97],[216,-51],[184,-5],[166,15],[84,19],[249,102],[206,63],[215,29],[358,-73],[144,-71],[115,-107],[101,-37],[424,-97],[185,-27],[580,-186],[255,19]],[[27768,9489],[-16,-79]],[[26711,7673],[12,-80],[13,-14]],[[26771,7543],[285,-79]],[[27094,7452],[84,-52]],[[25364,6442],[-25,-3],[-1,10],[18,8],[8,-15]],[[25362,6664],[3,-17],[-32,1],[5,27],[24,-11]],[[25320,6724],[2,12],[13,9],[6,-26],[-21,5]],[[25348,6941],[-11,11],[0,4],[13,-7],[-2,-8]],[[25079,6700],[-10,5],[21,3],[1,-5],[-12,-3]],[[25183,7047],[-9,-8],[-12,10],[8,6],[13,-8]],[[24593,7533],[29,-3],[3,-11],[-37,-7],[-47,22],[21,1],[-3,16],[34,-18]],[[24115,7640],[6,15],[10,-6],[-7,-18],[-9,9]],[[25281,7014],[18,-11],[66,0],[-4,-34],[-26,-10],[-36,-34],[-4,-28],[-30,12],[4,40],[-59,22],[55,48],[16,-5]],[[22579,8914],[-2,-8],[-5,-3],[-3,17],[10,-6]],[[27763,9649],[5,-160]],[[22203,9258],[-20,-19]],[[22159,9228],[-101,-25]],[[21995,9160],[-54,-11],[3,23],[-34,56],[8,17],[29,18],[44,-9],[70,68],[90,14],[81,50],[91,30],[138,139],[16,54],[-16,4],[-7,-44],[-75,-64],[-63,-83],[-77,-15],[-91,-58],[-97,-20],[-68,-62],[-18,7],[-21,51],[-35,23],[-70,20],[-47,-7],[-31,11],[-43,43],[-32,5],[-51,86],[-86,37],[-87,2],[-30,-21],[-18,13],[-33,-2],[-14,-21],[-14,15],[-27,-4],[-25,-10],[4,-20],[-68,-17],[-137,24],[-148,-7],[-69,-32],[1,-58],[-25,-3],[14,-26],[-42,-4],[-56,66],[81,43],[11,158],[-35,85],[18,17],[1,29],[-25,66],[-46,15],[-7,26],[2,42],[46,10],[1,23],[-52,1],[-3,63],[-61,73],[-12,42],[-23,7],[-8,30],[-55,41],[-31,62],[-76,64],[-87,18],[-44,-1],[-21,-21],[-117,12],[-10,78],[90,92],[-13,52],[-44,35],[-1,17],[36,30],[12,31],[-29,100],[-52,39],[13,25],[-52,-44],[-31,47],[1,39],[-23,26],[-138,75],[-80,24],[-121,0],[-79,-31],[-41,-38],[-37,-5],[-110,12],[-32,68]],[[19916,11648],[11,57],[36,258]],[[21050,13234],[43,38],[50,72]],[[21449,16386],[11,65],[40,48],[124,65],[67,2],[67,-55],[135,0],[34,-17],[52,-69],[21,-89],[43,-86],[88,-70],[140,-21],[219,-1],[115,-30],[41,-45],[31,-62],[20,-144],[75,-174],[20,-33],[56,-30],[54,-2],[56,18],[137,143],[28,14],[127,-1],[17,37],[72,47],[49,0],[23,-13],[129,21],[193,-180],[53,-23],[1122,-290],[909,-165]],[[25817,15246],[104,-48]],[[25921,15198],[589,-657],[74,-121],[82,-29],[1707,-1010],[82,-25],[91,4],[56,-13],[56,-36],[33,-56],[111,-383]],[[27998,9914],[-12,-42]],[[20271,10284],[-6,14],[19,-4],[-8,-14],[-5,4]],[[37464,9832],[-20,-2]],[[37424,9836],[-61,45]],[[33057,10322],[-84,5]],[[25921,15198],[-44,22],[-60,26]],[[20472,19176],[-13,57],[-27,58]],[[20103,19753],[-34,72],[-20,17]],[[20003,19883],[-201,180]],[[18686,20613],[-87,155],[-47,28],[-197,60],[-10,33],[39,134],[-4,107],[12,30],[85,77],[0,67],[-68,225],[-144,94],[-42,48],[-19,104],[9,142],[-30,86],[36,125],[-12,304],[-26,62],[-124,93],[-34,70],[9,77],[33,72],[154,166],[44,79],[8,72],[-13,45],[-55,78],[-58,52],[-349,213],[-166,-7],[-39,12],[-21,27],[-70,168],[-31,150],[57,192],[43,92],[11,38],[-12,24],[-54,18],[-309,17],[-71,30],[-50,60],[-28,53],[-6,86],[97,105],[-14,39],[-136,137],[-15,55],[44,124],[7,125],[-12,63],[-21,49],[-60,49],[-83,36],[-36,59],[37,101],[75,118],[18,54],[-27,59],[-97,58],[-192,32],[-129,78],[-103,-5],[-169,-61],[-50,6],[-47,35],[-18,129],[-39,73],[-84,41],[-66,4],[-9,20],[0,3]],[[15921,26057],[1,47]],[[15922,26104],[0,19],[26,53],[132,70],[65,93],[45,92],[0,80],[22,50],[137,47],[36,30]],[[16385,26638],[23,47],[-2,12]],[[16406,26697],[-11,64],[-174,69],[-47,48],[-7,15]],[[16167,26893],[-9,18]],[[16158,26911],[-10,20],[-11,41],[7,170],[-35,149],[20,90],[31,37],[20,15]],[[16180,27433],[118,83]],[[16298,27516],[168,5],[178,38]],[[16853,27408],[106,-68],[195,-102]],[[17200,27234],[35,12],[27,22]],[[17277,27281],[20,16],[98,142]],[[18230,27193],[102,-116],[20,-9]],[[18403,27046],[91,53]],[[18529,27110],[48,-12]],[[18611,27085],[69,-49]],[[20003,27653],[9,10],[3,9]],[[21292,27588],[9,-13],[39,-27],[18,-4]],[[21379,27539],[11,-2],[37,14]],[[21805,28693],[69,67]],[[21874,28760],[35,-2]],[[24331,27664],[13,-3],[74,8]],[[27847,28204],[68,14],[4,3]],[[27937,28232],[10,6],[4,20]],[[27925,28393],[-6,31],[-15,28]],[[27856,28587],[-1,134]],[[27874,28801],[20,27]],[[27908,28840],[45,32]],[[28397,28761],[22,-47],[77,-68],[127,-175],[65,-69],[176,-69],[181,-170],[320,-54],[206,-55],[71,-2],[102,25],[115,9],[151,-14],[122,-27],[39,7],[-3,-51],[180,-136],[58,-175],[147,-169],[-29,-20],[-131,-26],[-68,-40],[0,-33],[86,-65],[9,-20],[-14,-61],[-43,-78],[-52,-20],[-163,-28],[-12,-38],[28,-222],[59,-181],[45,-86],[18,-21],[100,-49],[87,-127],[51,-36],[58,-20],[170,-9],[204,9],[85,30],[70,45],[96,23],[68,1],[101,-29],[200,-160],[113,-148],[7,-16]],[[31696,26096],[52,-132]],[[31748,25964],[64,-81],[36,-93],[-3,-27],[-12,-12]],[[31833,25751],[-126,-135]],[[31707,25616],[-48,-111],[22,-120],[69,-87],[6,-45],[-75,-42],[-44,-1],[-120,32],[-85,-10],[-70,-32],[-63,-98],[-44,-174],[-240,-199],[-14,-91],[31,-148],[-140,-181],[-26,-79],[17,-122],[47,-145],[-1,-92],[-24,-53],[-170,-147],[-33,-71],[26,-71]],[[30728,23529],[133,-132],[16,-8]],[[30877,23389],[198,-97],[276,136],[252,86],[67,-13],[168,-72],[77,-6],[102,19],[237,-29],[14,-5]],[[32268,23408],[17,-7]],[[32285,23401],[11,-4],[6,-8]],[[32302,23389],[78,-98]],[[32380,23291],[35,-22],[260,-48],[242,-265],[237,-119],[91,-101],[44,-14],[76,9],[182,60],[36,-6],[48,-119],[21,-32],[44,-26],[61,-8],[165,38],[54,-23],[21,-160],[57,-58],[170,-107],[85,-84],[-58,-80],[9,-75],[34,-51],[80,-65],[127,-184],[60,-141],[45,-6],[60,15],[40,28],[-48,101],[-36,32],[-1,14]],[[34621,21794],[0,27]],[[34621,21821],[0,11],[12,10]],[[34633,21842],[186,143]],[[34819,21985],[16,29]],[[34835,22014],[15,113],[0,75]],[[34850,22202],[-107,294],[-2,356]],[[34741,22852],[0,29],[-11,31]],[[34730,22912],[-46,46],[-127,73],[-33,39],[-14,47],[45,279],[132,146],[50,147],[2,68],[-41,110],[-43,243],[37,15],[123,-111],[97,-49],[174,-28],[240,13],[484,70]],[[35810,24020],[-3,-45],[-44,-44],[-30,5],[-11,22],[-19,3],[-101,0],[-51,-20],[-64,-97],[-20,-282],[-20,17],[-35,-8],[-32,-55],[-27,26],[-30,-4],[-60,-63],[-10,10],[14,61],[-28,-56],[15,-30],[-10,-84],[21,-172],[48,-163],[42,-94],[-10,-21],[25,-94],[116,-250],[73,-124],[49,-58],[22,8],[13,-14],[-28,-18],[57,-71],[-20,-19],[47,-18],[20,-27],[18,0],[29,-39],[-57,-19],[5,-27],[-13,-11],[-34,-3],[-18,28],[-37,9],[-76,55],[-68,11],[-68,-18],[-126,-117],[-86,-123],[-49,25],[26,-36],[-13,-52],[-68,-102],[-21,-144],[15,-89],[-15,-59],[76,-325],[32,-67],[-22,-33],[32,-83],[-7,-18],[-26,-1],[-20,-24],[18,-86],[-23,-35],[-58,50],[-78,19],[-97,-23],[-35,12],[-17,-9],[-19,-111],[-60,-79],[-47,-112],[-28,-120],[2,-139],[126,-329],[75,-139],[131,-178],[10,-44],[59,-85],[-19,-18],[-34,7],[53,-31],[28,20],[-16,34],[19,-4],[151,-190],[31,-89],[53,-50],[-7,-41],[34,24],[-48,81],[110,-90],[-2,-15],[109,-140],[47,-36],[134,-154],[243,-210],[97,-39],[-6,-46],[16,-54],[-102,-17],[-91,-70],[91,46],[42,6],[67,-2],[27,-53],[-21,-251],[-18,-37],[-37,5],[29,25],[-21,16],[-24,-2],[-31,-44],[-18,3],[63,68],[36,69],[-8,7],[-156,-133],[-105,-146],[-55,-192],[-34,-53],[-50,-144],[-58,-413],[24,-292],[57,-296],[90,-276],[10,-87],[24,-41],[-16,-20],[1,-34],[22,-69],[11,-119],[-8,-42],[10,-18],[-34,-149],[-2,-130],[50,-338],[7,-214],[-7,-42],[-24,-27],[-21,21],[34,43],[-23,82],[16,50],[-30,96],[21,51],[-31,29],[-41,9],[-20,-11],[69,-11],[-16,-78],[22,-51],[-14,-87],[16,-57],[-34,-47],[-60,-407],[-7,-229],[17,-258],[-20,-181],[-14,76],[18,107],[-4,184],[-19,22],[-18,0],[22,-13],[2,-160],[-22,-126],[13,-48],[-18,-116],[5,-65],[47,-242],[82,-256],[130,-240],[214,-277],[115,-82],[157,-189],[77,-62],[33,-53],[0,-107],[-110,-83],[77,26],[81,76],[36,-10],[125,-119],[102,-62],[42,-65],[37,-14],[311,-259],[104,-75],[22,0],[57,-60],[89,-56],[60,-88],[-4,-45]],[[35945,18119],[8,13],[-1,-17],[-17,-8],[10,12]],[[35082,19543],[9,14],[14,-3],[-11,-16],[-12,5]],[[35087,19612],[6,-4],[2,-10],[-8,0],[0,14]],[[35410,22214],[-12,-10],[-4,2],[26,14],[-10,-6]],[[35455,22962],[2,10],[13,5],[2,-15],[-17,0]],[[10402,33288],[99,20]],[[11397,33636],[16,33],[59,282],[0,5]],[[12333,37070],[25,51]],[[12358,37121],[73,3]],[[12466,37120],[156,-37]],[[12622,37083],[39,10],[21,16]],[[12710,37206],[-10,37],[138,-66],[107,-84],[133,-209],[46,-17],[211,14],[41,-29],[148,-177],[46,-19],[-8,-22],[103,-114],[35,-15],[-3,-20],[125,-147],[43,-29],[-1,-17],[48,-51],[11,-51],[33,-19],[-1,-41],[85,-157],[21,-172],[43,11],[52,48],[124,71],[101,119],[54,34],[202,39],[95,58],[123,167],[-6,44],[55,1],[68,35],[243,187],[25,144],[-51,100],[12,49],[-54,69],[1,25],[21,31],[25,114],[79,145],[6,36],[28,9],[77,88],[59,36],[67,33],[47,-11],[211,-102],[148,92],[129,4],[20,11],[-5,17],[23,29],[26,5],[44,41],[117,27],[28,22],[181,276],[1,33],[25,-13],[66,23],[93,9],[488,-27],[14,14],[63,-19],[107,22],[52,36],[-1,15],[243,167],[20,0],[226,125],[240,41],[98,69],[55,20],[139,-73],[133,-99],[47,-19],[3,-27],[74,-71],[117,-161],[40,-18],[177,-25],[47,-40],[7,-60],[-33,-105],[33,18],[-20,-160],[14,-139],[75,-121],[148,-117]],[[19864,33866],[6,-90]],[[19868,33760],[-28,-51]],[[16734,29511],[-43,-25],[-17,-21]],[[16658,29445],[-8,-11],[-20,-93]],[[16387,28333],[-16,-6]],[[16126,28314],[-18,5]],[[16052,28334],[-8,3],[-11,-9]],[[16011,28313],[-8,-6],[-7,-15]],[[15975,28248],[-5,-10],[0,-17]],[[16423,27520],[-125,-4]],[[16298,27516],[-92,-57],[-26,-26]],[[16158,26911],[4,-13],[5,-5]],[[16406,26697],[-21,-59]],[[15922,26104],[-9,-25],[8,-22]],[[18464,20411],[-64,-77]],[[18207,20210],[-4,-8],[2,-10]],[[18209,20173],[3,-18],[26,-37]],[[17926,19835],[-95,-45]],[[16436,20576],[-17,39]],[[16407,20738],[-4,8],[-60,44]],[[16318,20809],[-14,10],[-20,4]],[[16266,20827],[-65,12],[-27,-2]],[[16145,20834],[-12,-1],[-76,-44]],[[16061,20015],[-28,-42]],[[15123,19807],[-8,239]],[[15099,20176],[-2,0],[-262,-90]],[[12787,20852],[-20,-2],[-62,-42]],[[12216,21139],[-12,62]],[[12224,21356],[1,11],[-9,27]],[[12216,21394],[-25,6],[-27,-5]],[[11877,21306],[-368,-17],[-10,-2]],[[10998,20889],[86,331],[2,115],[-103,21],[-46,-4],[-34,-18],[-106,-19],[-109,-72],[-58,0],[-171,45],[-163,102],[-53,51],[-90,27],[-57,34],[-36,106],[-30,35],[-5,48],[21,28],[-48,14],[13,25],[-38,405],[22,236],[54,112],[47,31],[134,8],[308,102],[14,96],[51,131],[-10,150],[-41,181],[-124,155],[-138,78],[-78,21],[-43,114],[-47,69],[-91,86],[-170,108],[-240,66],[-84,-16],[-60,25],[-102,-9],[-26,-58],[-74,-56],[-44,75],[-30,6],[-11,-16],[-14,1],[-19,27],[-15,96],[-32,51],[-57,36],[3,64],[65,44],[3,73],[-32,44],[-104,66],[-37,65],[11,42],[-19,25],[12,13],[62,1],[76,-28],[28,-31],[66,-14],[-40,27],[4,9],[103,-53],[34,8],[47,31],[71,0],[39,-60],[16,6],[-14,18],[20,6],[104,-27],[5,9],[-58,9],[-12,21],[-35,-4],[-10,18],[23,19],[13,38],[86,74],[29,72],[0,41],[17,10],[67,-65],[22,-4],[-3,-12],[23,5],[34,-19],[24,12],[47,-34],[26,-48],[41,-12],[16,8],[-44,23],[-47,68],[-102,27],[-6,30],[24,34],[-60,-14],[-57,62],[-9,35],[70,175],[87,14],[58,39],[63,9],[-60,7],[-61,-39],[-44,7],[-41,46],[-16,54],[-66,73],[6,83],[112,60],[7,100],[87,82],[-40,12],[-31,-21],[-44,-78],[-24,-98],[-88,-43],[-35,15],[-31,40],[-41,144],[1,38],[27,30],[-31,9],[7,-16],[-20,-82],[32,-98],[-16,-39],[60,-36],[31,-70],[-19,-6],[-31,32],[-60,0],[-24,45],[-5,-34],[26,-27],[66,0],[54,-84],[46,-31],[-25,-43],[0,-41],[35,-50],[-76,-99],[-18,-2],[-27,20],[-31,-18],[8,-14],[21,19],[18,-9],[26,-196],[-35,-20],[-51,-59],[-102,-62],[-182,-25],[-8,48],[-84,33],[-8,129],[-29,-53],[23,-49],[-10,-57],[-136,50],[-11,42],[21,88],[-68,46],[16,28],[-3,91],[-36,30],[-30,0],[-7,60],[-41,65],[-30,7],[-16,-22],[-44,29],[-39,-34],[-20,2],[-3,21],[13,74],[36,29],[37,63],[170,350],[-16,46],[31,80],[-5,61],[24,19],[3,25],[-24,46],[8,34],[-47,37],[27,38],[-5,20],[64,56],[20,-14],[-2,-36],[24,-14],[66,2],[29,14],[31,32],[28,118],[41,31],[-17,29],[0,39],[33,126],[-7,329],[37,126],[62,95],[45,-45],[10,25],[42,28],[40,4],[124,196],[30,76],[-3,32],[-43,75],[-4,60],[81,50],[13,82],[-71,42],[-86,95],[-55,32],[-21,44],[-47,11],[-13,39],[-44,-3],[-9,49],[-33,9],[-11,16],[55,41],[60,5],[40,-18],[36,-53],[-29,59],[-50,21],[3,20],[60,62],[55,12],[19,-19],[3,39],[72,32],[40,50],[52,-5],[49,-42],[35,-8],[-66,55],[-39,12],[-39,-5],[-60,-50],[-29,23],[13,23],[57,32],[19,30],[52,125],[-13,60],[11,98],[59,59],[-15,52],[-55,79],[-162,118],[-42,3],[-70,-30],[-19,9],[-52,86],[-103,-1],[-57,38],[3,71],[39,48],[63,23],[149,23],[-128,-5],[34,62],[-44,126],[57,128],[-3,29],[-47,53],[3,41],[37,69],[-32,73],[23,71],[21,6],[32,-16],[24,12],[18,80],[-52,5],[-13,45],[-3,-44],[54,-22],[-20,-60],[-58,12],[-16,-16],[-25,-94],[34,-52],[-43,-56],[-50,21],[-35,41],[-3,28],[-9,-5],[19,-48],[71,-43],[-3,-22],[-18,-8],[-73,-5],[-84,37],[-154,-7],[-71,126],[-34,23],[-50,5],[-104,-40],[-27,5],[-72,44],[-13,34],[-3,70],[50,28],[7,48],[-23,23],[-108,30],[-20,18],[20,48],[27,21],[44,-10],[113,-100],[62,-18],[19,-85],[21,-36],[-37,146],[65,27],[50,41],[79,-25],[-6,-36],[34,-42],[121,-16],[23,-21],[10,-38],[37,-18],[-13,18],[10,18],[-31,-11],[-13,45],[-26,19],[-121,18],[-15,19],[-8,56],[-84,35],[0,50],[-21,59],[40,37],[-34,48],[-53,21],[-47,0],[-118,-71],[-20,18],[-29,71],[-26,23],[-37,9],[-81,-25],[-26,-30],[0,-27],[-31,0],[-13,32],[28,88],[-21,30],[8,-43],[-26,-52],[0,-44],[26,-21],[37,-4],[44,-69],[-15,-14],[-27,8],[-60,43],[-37,-23],[-4,-32],[57,-78],[-8,-22],[-34,-8],[-26,17],[-36,82],[-34,36],[-32,12],[-51,-9],[-108,52],[-175,53],[-24,21],[18,95],[19,14],[54,-14],[34,12],[68,75],[40,-18],[43,-56],[-17,-54],[10,-45],[68,-46],[65,46],[32,75],[52,43],[-34,-9],[-37,-32],[-25,-77],[-58,-36],[-60,47],[-5,32],[20,57],[-54,73],[-27,12],[-28,-7],[-71,-78],[-63,14],[-39,-23],[-18,-130],[-21,-28],[-57,-3],[-16,-22],[-92,-41],[-52,4],[-115,129],[-79,150],[-18,124],[10,178],[-16,44],[-20,24],[-61,-9],[-67,48],[-5,-9],[47,-62],[-13,-6],[-37,34],[-88,169],[-46,175],[-56,73],[-17,79],[-46,107],[-37,47],[5,20],[57,13],[-57,0],[-47,23],[-33,56],[-15,-6],[-20,11],[0,58],[62,86],[60,15],[97,62],[52,144]],[[7044,31817],[123,-16],[709,62],[86,14],[64,55]],[[8026,31932],[58,15]],[[8084,31947],[8,2],[28,-4]],[[8040,31863],[-1,-24],[41,-87]],[[8215,31561],[3,-8],[7,-2]],[[9068,31773],[63,10],[21,11]],[[9172,31806],[7,4],[31,37]],[[10231,32852],[52,31],[9,12]],[[10299,32904],[17,22],[0,26]],[[9201,23786],[1,14],[16,-3],[-9,-20],[-8,9]],[[9479,23898],[84,-19],[-1,-92],[-183,-5],[-4,117],[104,-1]],[[9769,25482],[-4,13],[33,16],[5,-7],[-34,-22]],[[9212,27826],[58,-14],[8,-47],[13,-9],[31,9],[16,-40],[52,-15],[19,-42],[47,-23],[84,-93],[83,-58],[-34,-75],[-49,-2],[-50,-21],[-68,67],[15,-21],[-65,-41],[68,32],[47,-59],[13,-87],[37,-94],[-8,-23],[-19,-11],[-101,-5],[-124,-47],[-44,-33],[-47,-7],[-246,87],[-10,14],[18,30],[-75,-44],[-22,9],[-2,26],[49,166],[-15,110],[28,34],[19,92],[60,103],[89,98],[86,55],[39,-21]],[[9291,28788],[26,-48],[36,-29],[113,27],[159,-114],[66,-128],[-44,-39],[-24,-78],[15,-109],[-57,-119],[-24,-21],[-60,-9],[-10,21],[-100,-85],[-55,9],[-31,19],[0,36],[27,11],[60,-2],[28,27],[-36,92],[10,66],[-28,48],[-27,5],[-10,-12],[29,1],[26,-41],[-9,-68],[32,-70],[-3,-27],[-62,-7],[-37,13],[0,-20],[-42,-48],[-47,-18],[-65,0],[-31,-23],[-128,-41],[-42,109],[-50,81],[-58,228],[47,34],[94,-39],[24,14],[26,57],[87,18],[47,55],[28,12],[61,-3],[49,33],[-22,0],[-30,-26],[-78,3],[-58,-62],[-86,-16],[-39,-64],[-26,-7],[-108,64],[-36,52],[-14,53],[11,89],[39,87],[34,27],[123,-41],[97,32],[83,-6],[68,18],[32,-21]],[[4338,22309],[-30,-14],[-30,18],[14,20],[33,13],[44,-19],[-31,-18]],[[8382,22446],[-7,38],[21,11],[19,-51],[-13,-21],[-20,23]],[[8428,22570],[-16,-14],[-10,18],[13,8],[13,-12]],[[8431,22588],[-19,0],[-8,12],[21,0],[6,-12]],[[8553,22522],[-57,25],[16,28],[34,-25],[7,-28]],[[8538,22778],[28,-14],[29,9],[-1,-37],[-41,-35],[-12,11],[-12,-19],[-17,0],[-24,37],[19,14],[-11,36],[42,-2]],[[8807,22997],[-16,-6],[-7,6],[16,14],[7,-14]],[[8872,23098],[-13,4],[26,23],[9,-16],[-22,-11]],[[8496,22583],[-24,14],[14,35],[39,-41],[-29,-8]],[[8477,22991],[32,-12],[5,-7],[-26,-2],[-41,21],[30,0]],[[8538,24140],[24,-23],[-37,-45],[16,-26],[-82,0],[-12,67],[38,4],[-34,25],[11,25],[8,7],[18,-14],[21,19],[29,-39]],[[8451,24387],[-4,-18],[-23,11],[-51,-4],[-19,27],[87,-2],[10,-14]],[[8528,24695],[38,-29],[24,-67],[-13,-22],[16,-17],[39,-9],[59,44],[48,-41],[-8,-44],[51,-54],[28,-80],[-10,-33],[23,-63],[-13,-55],[32,-46],[-35,-39],[56,-53],[-10,-38],[-77,29],[-37,-23],[-48,12],[-31,28],[0,57],[-28,75],[-37,26],[-47,11],[-36,-16],[-24,32],[13,45],[-47,39],[56,33],[4,68],[-42,31],[-34,5],[-15,26],[78,15],[19,48],[-16,19],[-55,6],[-24,57],[45,37],[24,-16],[34,2]],[[8808,25949],[-21,21],[8,14],[34,-34],[-21,-1]],[[9082,29426],[26,-21],[42,-6],[68,6],[13,-27],[39,-7],[15,-21],[0,-45],[-51,-94],[31,-96],[-3,-48],[-42,-16],[-20,-30],[-84,-4],[-122,-84],[-98,47],[-65,7],[-78,-16],[-24,11],[-76,80],[-44,122],[0,80],[179,55],[47,-41],[97,-26],[-20,160],[144,20],[26,-6]],[[8800,29556],[41,-78],[63,-59],[-8,-28],[16,-38],[0,-66],[-65,1],[-50,46],[-63,-6],[-81,-37],[-63,7],[-42,64],[14,28],[-9,91],[40,41],[97,21],[73,41],[37,-28]],[[8472,24446],[-14,-7],[-8,8],[21,7],[1,-8]],[[8496,30166],[34,-77],[49,-37],[40,9],[88,64],[43,0],[44,-23],[16,-30],[-32,-52],[16,-25],[8,-87],[-42,-39],[-104,-36],[-124,109],[-26,12],[-36,-5],[-52,-50],[5,-50],[133,-55],[13,-14],[-10,-16],[-56,8],[-117,-44],[-23,-44],[-84,-89],[-94,-5],[-45,14],[-5,25],[-47,-7],[-60,14],[-71,-11],[-23,75],[-3,84],[-26,21],[-8,46],[39,107],[42,35],[92,29],[81,-18],[102,-114],[57,-5],[44,49],[-17,45],[-37,39],[10,7],[68,-30],[47,16],[3,52],[-47,44],[-5,23],[59,36],[61,0]],[[9064,29442],[-20,0],[0,4],[17,10],[3,-14]],[[5222,41061],[-5,-8],[-24,5],[-104,117],[-122,213],[-117,267],[6,25],[-79,144],[-113,310],[-85,90],[20,32],[31,12],[-56,-1],[-22,26],[13,10],[-10,36],[17,72],[202,280],[-27,48],[2,79],[13,16],[42,7],[5,36],[66,23],[0,18],[-39,20],[2,15],[47,19],[9,48],[26,38],[-35,18],[7,25],[-24,39],[0,51],[-21,40],[13,52],[-4,134],[-28,98],[15,61],[39,41],[-26,93],[14,13],[62,-68],[52,23],[19,-5],[23,-36],[15,48],[34,-21],[37,28],[2,24],[-49,115],[17,52],[-25,49],[-69,23],[-43,194],[54,62],[8,43],[-36,27],[115,64],[-26,113],[17,96],[-14,23],[-47,11],[-17,81],[80,41],[69,143],[87,48],[22,-7],[54,39],[8,-20],[35,0],[56,-25],[167,-195],[45,-24],[72,25],[53,-9],[19,22],[2,67],[34,31],[41,-37],[-2,-96],[102,-23],[10,9],[-7,37],[61,93],[60,-3],[43,21],[54,-15],[3,-180],[30,-61],[26,0],[17,-36],[145,-62],[17,-20],[28,2],[12,-18],[-22,-172],[37,-163],[-7,-32],[-20,-24],[-91,-47],[-5,-49],[45,-20],[21,-33],[303,-206],[3,-94],[49,-37],[10,-82],[51,-53],[62,-26]],[[5359,41368],[-11,-10],[-78,-121]],[[8084,31947],[-14,1],[-44,-16]],[[7044,31817],[22,47],[50,36],[44,14],[91,112],[111,96],[-2,40],[-46,26],[18,58],[-5,80],[21,94],[18,25],[42,18],[-39,41],[3,94],[-40,128],[-70,153],[-50,11],[-11,31],[19,2],[16,31],[73,64],[146,65],[-51,13],[-66,-35],[-29,23],[-61,220],[-78,64],[0,34],[27,41],[0,62],[19,29],[-40,10],[-134,92],[-42,58],[-71,35],[-18,66],[-50,70],[5,22],[59,35],[5,34],[-16,1],[-18,-38],[-49,-21],[-5,-21],[-28,35],[-22,102],[43,74],[4,17],[-25,15],[6,27],[52,18],[34,52],[51,211],[6,117],[-28,286],[-24,22],[-29,112],[11,72],[-21,6],[-91,212],[-64,85],[-63,51],[-73,27],[-15,26],[5,26],[22,9],[136,-29],[52,4],[-117,33],[-77,0],[-15,16],[1,49]],[[8417,32944],[60,-393]],[[8562,31938],[-21,-69]],[[8541,31869],[-199,52]],[[6424,33501],[14,-50],[20,-10],[-17,-67],[7,-21],[-31,-23],[-77,-24],[-12,-13],[11,-47],[-18,-34],[-19,-8],[-17,10],[-16,89],[31,27],[-4,26],[22,48],[27,18],[26,51],[25,5],[10,24],[18,-1]],[[6479,33694],[-10,-5],[-3,9],[12,3],[1,-7]],[[6460,33733],[6,-16],[-19,-2],[1,20],[12,-2]],[[6358,33796],[5,11],[13,-3],[-7,-15],[-11,7]],[[5070,32610],[-28,-31],[-6,12],[24,32],[-18,18],[28,34],[22,5],[-22,-70]],[[5991,32772],[-5,-26],[-19,-9],[-10,17],[-28,-10],[-19,30],[16,16],[26,-14],[34,19],[5,-23]],[[5102,33325],[15,5],[11,-19],[-13,-7],[-13,21]],[[5494,34559],[39,-9],[11,9],[39,-7],[16,21],[24,-9],[163,144],[43,-5],[26,-28],[34,-7],[47,9],[58,-39],[13,-56],[57,-5],[68,16],[37,-29],[114,-8],[3,-38],[53,-60],[-10,-61],[-27,-35],[15,-27],[69,-58],[94,-47],[162,-28],[-19,-70],[-51,-31],[-6,-31],[-78,-49],[-50,-77],[-52,-18],[-23,-41],[7,-44],[-21,-43],[0,-80],[27,-37],[-29,-27],[-61,-197],[-75,-118],[-6,-60],[-26,-42],[-26,-100],[-34,-39],[10,-61],[-78,-74],[-13,-50],[19,-38],[-32,-28],[-61,9],[-20,64],[-94,94],[-58,25],[-63,-9],[-18,-34],[-26,-14],[-71,87],[-54,20],[-61,0],[-29,-57],[-49,23],[-53,-4],[-41,-28],[-89,28],[-68,-8],[-40,-50],[-2,-71],[-36,35],[2,36],[-42,55],[0,21],[60,94],[5,36],[-21,43],[68,37],[53,-11],[13,13],[-23,190],[17,-44],[9,19],[-13,96],[-49,155],[0,-66],[-14,0],[-3,102],[-24,44],[-2,68],[-23,28],[15,55],[-10,28],[42,33],[-19,12],[-10,62],[26,187],[-10,18],[-90,28],[32,57],[-2,16],[-21,7],[-1,25],[42,39],[13,34],[-23,48],[3,37],[-37,18],[-23,47],[33,33],[65,14],[16,-62],[37,-3],[44,17],[21,-37],[53,-2],[-8,-41],[55,-25],[73,11],[60,36],[13,-6]],[[6998,32847],[2,32],[39,37],[0,32],[30,-5],[-3,-55],[-40,-43],[-28,2]],[[7008,32936],[3,41],[-11,5],[19,14],[-8,11],[15,21],[-15,4],[15,28],[-7,13],[15,10],[5,-122],[-13,-27],[-15,-7],[-3,9]],[[6767,34129],[1,22],[6,12],[7,-25],[-14,-9]],[[6178,34639],[-3,18],[9,1],[0,-14],[-6,-5]],[[26153,32563],[-23,156]],[[26130,32762],[8,59],[-4,74]],[[26165,33267],[8,29]],[[26260,33443],[12,20],[20,153]],[[25841,36147],[-11,138]],[[25825,36391],[18,26]],[[25904,36473],[254,188]],[[26444,36940],[175,100],[45,37]],[[26668,37081],[13,11],[15,22]],[[27267,37679],[119,-78],[47,1],[51,-36],[73,-21],[92,-68],[66,-17],[90,-47],[86,-83],[74,-47],[24,-41],[39,-9],[37,-60],[78,-6],[205,-265],[179,-202],[160,-150],[357,-282],[-56,22],[-8,18],[-57,29],[-6,18],[-134,99],[29,-51],[62,-33],[34,-48],[137,-71],[17,-34],[13,-1],[-2,23],[15,5],[10,-24],[25,-12],[-23,-9],[64,-47],[10,-24],[31,5],[56,-25],[36,0],[130,-128],[46,4],[-6,27],[18,-9],[33,-34],[11,-50],[93,-69],[138,-50],[51,-71],[-18,71],[-127,41],[-58,70],[-56,27],[-13,35],[-72,64],[-116,53],[-155,102],[155,-64],[369,-245],[293,-270],[167,-129],[112,-64],[80,-28],[245,-146],[236,-96],[111,-11],[39,-22],[108,0],[-7,44],[32,13],[245,-128],[308,-249],[351,-329],[73,-43],[416,-336],[191,-208],[141,-240],[61,-62],[-9,-12],[-21,21],[-17,-4],[14,-28],[37,-40],[50,1],[50,-36],[237,-363],[-15,-62],[-36,-27],[17,-3],[48,49],[97,-129],[12,-40],[-44,-3],[3,-74],[112,-191],[139,-185],[-26,-60],[76,14],[39,-48],[75,-130],[81,-184],[657,-1111],[-122,181],[20,-63],[91,-144],[19,18],[136,-221],[42,-43],[-4,-19],[352,-559],[590,-874],[-4,-35],[22,-49],[95,-159],[34,-31],[-8,-12],[-37,-3],[1,20],[-39,-6],[-45,23],[-87,8],[-105,-20],[-125,-46],[33,-9],[136,29],[152,-1],[-36,-52],[-17,-56],[20,-90],[76,-189],[145,-280],[-5,-28],[26,-69],[-19,-22],[6,-37],[-28,-28],[34,-164],[-15,-17],[-80,39],[-50,-30],[-1,-47],[28,-52],[17,0],[0,77],[45,25],[-35,-59],[21,-144],[139,-337],[108,-209],[13,-38],[-9,-30],[45,-100],[-18,-15],[6,-26],[48,-102],[-91,-98],[-19,18],[-64,3],[-38,-27],[-10,27],[-31,16],[-7,37],[-8,-27],[29,-37],[-27,-34],[8,-8],[-35,-79],[1,-24],[3,11],[18,-1],[37,112],[8,-11],[-69,-199],[-13,-147],[40,-135],[73,-157],[-8,-70],[12,-55],[-14,-6],[4,23],[-13,-23],[20,-16],[19,10],[-24,-41],[3,-158],[96,-193],[131,-201],[93,-118],[29,3],[-13,-22],[11,-40],[-9,-51],[-17,-22],[14,-38],[-35,-48],[6,-44],[-13,-37],[-36,-28],[-19,-45],[-26,9],[-19,-16],[24,-88],[-36,-14],[3,-37],[-31,-27],[13,-51],[-22,-65],[-28,0],[9,44],[-46,8],[-21,-8],[-2,-42],[-18,-27],[28,-16],[-30,3],[1,-15],[25,3],[-31,-22],[10,-29],[-35,-21],[-26,1],[-36,60],[-87,-10],[-40,33],[-22,80],[-2,-78],[20,-19],[-68,-48],[-8,-42],[57,-72],[10,4],[-33,51],[7,54],[69,30],[60,-12],[-39,-79],[-28,-125],[13,-117],[44,-138]],[[34730,22912],[11,-60]],[[34850,22202],[-15,-188]],[[34819,21985],[-179,-132],[-7,-11]],[[34621,21821],[-9,-15],[9,-12]],[[32380,23291],[-65,89],[-13,9]],[[32285,23401],[-8,6],[-9,1]],[[30877,23389],[-38,31],[-111,109]],[[31707,25616],[121,120],[5,15]],[[31748,25964],[-33,106],[-19,26]],[[28397,28761],[73,75],[8,21]],[[28321,29281],[-2,11]],[[28327,29370],[16,77],[-8,12]],[[28322,29481],[-4,6],[-7,4]],[[27313,29919],[-105,-34]],[[27188,29883],[-82,14]],[[27076,29929],[-13,255]],[[27164,31539],[4,8],[-3,13]],[[27161,31575],[-3,15],[-57,125]],[[26864,31872],[-64,81],[-15,11]],[[26657,32016],[-131,71],[-22,7]],[[38043,29205],[74,-18],[8,-15],[-48,-22],[22,-29],[-31,-34],[10,-32],[-42,-22],[-32,15],[-18,36],[-38,23],[14,27],[43,11],[3,18],[-25,3],[-6,16],[32,46],[25,6],[-5,-25],[14,-4]],[[37906,29439],[-5,-11],[-27,6],[-22,44],[31,-1],[23,-38]],[[32204,35640],[30,23],[16,0],[-14,-26],[-32,3]],[[32239,35900],[39,-25],[13,-67],[-24,-33],[-39,-18],[-31,13],[-16,-7],[-8,27],[-31,21],[21,34],[-6,23],[50,42],[32,-10]],[[34153,32581],[15,-81],[-23,-39],[-18,20],[-27,4],[-25,47],[8,44],[49,40],[8,32],[13,-67]],[[34116,32658],[-23,-19],[-18,7],[25,18],[27,-5],[-11,-1]],[[33125,35865],[-7,15],[16,4],[15,-33],[-24,14]],[[33055,35996],[-11,26],[8,15],[26,-44],[-23,3]],[[32260,36127],[-9,24],[11,12],[14,-10],[-3,-45],[-13,19]],[[32189,37080],[-15,24],[0,16],[31,-34],[-3,-11],[-13,5]],[[31899,36812],[14,12],[-12,-34],[-7,6],[5,16]],[[31638,36780],[-19,3],[-16,-25],[-11,24],[37,50],[-16,27],[9,21],[65,-73],[-11,-18],[-38,-9]],[[31881,36935],[0,14],[13,7],[4,-30],[-17,9]],[[32019,37124],[-17,6],[7,12],[18,-5],[-8,-13]],[[31663,37449],[13,0],[13,-29],[19,0],[16,36],[27,-61],[47,-25],[3,-34],[-22,-19],[9,-13],[-43,-90],[8,-18],[64,-6],[39,68],[30,9],[15,-5],[5,-20],[19,18],[0,-25],[57,7],[16,-10],[16,14],[21,-28],[-102,-96],[5,-20],[26,-14],[-31,-9],[21,-31],[-10,8],[-6,-15],[-33,-1],[12,-34],[-16,21],[-32,-8],[-67,-102],[-62,-18],[-66,18],[-8,61],[-28,-17],[-32,-62],[-29,68],[1,96],[-67,114],[52,45],[12,51],[-24,57],[30,111],[25,2],[7,19],[50,-13]]],"transform":{"scale":[0.00010623093399104304,0.00012154986312954842],"translate":[99.6408,1.2644]},"objects":{"gadm41_MYS_1":{"type":"GeometryCollection","geometries":[{"arcs":[[[0]],[[1]],[[2]],[[3]],[[4]],[[5,6,7,8,9,10,11,12,13,14,15,16,17,18,19,20,21,22,23,24,25]],[[26]],[[27]],[[28]],[[29]],[[30]],[[31]],[[32]],[[33]],[[34]],[[35]],[[36]],[[37]],[[38]],[[39]],[[40]],[[41]],[[42]],[[43]],[[44]],[[45]],[[46]],[[47]],[[48]],[[49]],[[50]],[[51]],[[52]],[[53]],[[54]],[[55]],[[56]],[[57]],[[58]],[[59]],[[60]],[[61]],[[62]],[[63]],[[64]],[[65]],[[66]],[[67]],[[68]],[[69]],[[70]],[[71]],[[72]],[[73]],[[74]],[[75]],[[76]],[[77]],[[78]],[[79]]],"type":"MultiPolygon","properties":{"NAME_1":"Johor"}},{"arcs":[[[80,81,82,83,84,85,86,87,88,89,90,91,92,93,94,95,96,97,98,99,100,101,102,103,104,105,106,107,108,109,110,111,112,113]],[[114]],[[115]],[[116]],[[117]],[[118]],[[119]],[[120]],[[121]],[[122]],[[123]],[[124]],[[125]],[[126]],[[127]],[[128]],[[129]],[[130]],[[131]],[[132]],[[133]],[[134]],[[135]],[[136]],[[137]],[[138]],[[139]],[[140]],[[141]],[[142]],[[143]],[[144]],[[145]],[[146]],[[147]],[[148]],[[149]],[[150]],[[151]],[[152]],[[153]],[[154]],[[155]],[[156]],[[157]],[[158]],[[159]],[[160]],[[161]],[[162]],[[163]],[[164]],[[165]],[[166]],[[167]],[[168]],[[169]],[[170]],[[171]],[[172]],[[173]],[[174]]],"type":"MultiPolygon","properties":{"NAME_1":"Kedah"}},{"arcs":[[[175,176,177,178,179,180,181,182,183,184,185,186,187,188,189,190,191,192,193,194,195,196,197,198,199,200,201,202,203,204,205,206,207,208,209,210,211,212,213,214,215,216,217,218,219,220,221,222,223,224,225,226,227,228,229,230,231,232,233,234,235,236,237,238,239,240,241,242,243,244,245,246,247,248,249,250,251,252,253,254,255,256,257,258,259,260,261,262,263,264,265,266,267,268,269,270,271,272,273]],[[274]],[[275]],[[276]],[[277]],[[278]]],"type":"MultiPolygon","properties":{"NAME_1":"Kelantan"}},{"arcs":[[[280,281,282,283,284,285,286,287,288,289,290,291,292,293,294,295,296,297,298,299,300,301,302,303,304,305,306,307,308,309,310,311,312,313,314,315,316,317,318,319,320,321,322,323,324,325,326],[279]],[[327]],[[328]],[[329]],[[330]],[[331]],[[332]],[[333]],[[334]],[[335]],[[336]],[[337]],[[338]],[[339]]],"type":"MultiPolygon","properties":{"NAME_1":"Klang Valley"}},{"arcs":[[[-6,340,-25,341,342,343,344,345,346,347,-12,348,-10,349,-8,350]],[[351]],[[352]],[[353]],[[354]],[[355]],[[356]],[[357]],[[358]],[[359]],[[360]]],"type":"MultiPolygon","properties":{"NAME_1":"Melaka"}},{"arcs":[[[-14,361,-347,362,-345,363,-343,364,-281,365,-326,366,-324,367,368,369,-16,370]],[[371]]],"type":"MultiPolygon","properties":{"NAME_1":"Negeri Sembilan"}},{"arcs":[[[-23,372,-21,373,-19,374,-17,-370,375,-368,-323,376,-321,377,-319,378,-317,379,380,381,382,383,384,385,386,387,-235,388,-233,389,-231,390,-229,391,-227,392,-225,393,-223,394,-221,395,-219,396,-217,397,-215,398,399,-212,400,-210,401,-208,402,-206,403,-204,404,-202,405,-200,406,-198,407,408,409,410,411,412,413,414,415,416,417,418,419,420,421,422,423,424,425,426]],[[427]],[[428]],[[429]],[[430]],[[431]]],"type":"MultiPolygon","properties":{"NAME_1":"Pahang"}},{"arcs":[[[-114,432,-112,433,-110,434,435,-107,436,437,-104,438,-255,439,-253,440,-251,441,-249,442,-247,443,-245,444,-243,445,-241,446,-239,447,-237,448,449,-386,450,-384,451,-382,452,-380,-316,453,-314,454,-312,455,-310,456,-308,457,-306,458,-304,459,-302,460,-300,461,-298,462,-296,463,-294,464,-292,465,-290,466,-288,467,468,-285,469,-283,470,471,472,473,-92,474,-90,475,-88,476,-86,477,-84,478,-82,479]],[[480]],[[481]],[[482]],[[483]],[[484]],[[485]],[[486]],[[487]],[[488]],[[489]],[[490]],[[491]],[[492]],[[493]],[[494]],[[495]],[[496]],[[497]],[[498]],[[499]],[[500]],[[501]],[[502]],[[503]]],"type":"MultiPolygon","properties":{"NAME_1":"Perak"}},{"arcs":[[-100,504,-102,505]],"type":"Polygon","properties":{"NAME_1":"Perlis"}},{"arcs":[[[-93,-474,506,-472,507,-98,508,-96,509,510]],[[511]],[[512]],[[513]],[[514]],[[515]],[[516]],[[517]],[[518]],[[519]],[[520]],[[521]],[[522]]],"type":"MultiPolygon","properties":{"NAME_1":"Pulau Pinang"}},{"arcs":[[[-176,523,-273,524,-271,525,-269,526,-267,527,-265,528,-263,529,-261,530,-259,531,-257,532,-426,533,-424,534,-422,535,-420,536,-418,537,-416,538,-414,539,-412,540,-410,541,-408,542,-196,543,-194,544,-192,545,-190,546,-188,547,-186,548,-184,549,-182,550,-180,551,-178,552]],[[553]],[[554]],[[555]],[[556]],[[557]],[[558]],[[559]],[[560]],[[561]],[[562]],[[563]],[[564]],[[565]],[[566]],[[567]]],"type":"MultiPolygon","properties":{"NAME_1":"Terengganu"}}]}}}